{
 "type": "Feature",
 "properties": {
  "name": "kaunas-loop",
  "source": "OSRM driving route over OSM Lithuania"
 },
 "geometry": {
  "type": "LineString",
  "coordinates": [
   [
    23.90358,
    54.89852
   ],
   [
    23.90353,
    54.89851
   ],
   [
    23.90346,
    54.89856
   ],
   [
    23.90345,
    54.89857
   ],
   [
    23.90299,
    54.899
   ],
   [
    23.90441,
    54.89958
   ],
   [
    23.90468,
    54.8997
   ],
   [
    23.9054,
    54.9
   ],
   [
    23.90621,
    54.90033
   ],
   [
    23.90684,
    54.90059
   ],
   [
    23.90766,
    54.90094
   ],
   [
    23.90783,
    54.901
   ],
   [
    23.90808,
    54.9011
   ],
   [
    23.90849,
    54.90127
   ],
   [
    23.90875,
    54.90137
   ],
   [
    23.90886,
    54.90142
   ],
   [
    23.90919,
    54.90154
   ],
   [
    23.90971,
    54.90175
   ],
   [
    23.91028,
    54.90197
   ],
   [
    23.91226,
    54.9027
   ],
   [
    23.9126,
    54.90283
   ],
   [
    23.91288,
    54.90293
   ],
   [
    23.913,
    54.90297
   ],
   [
    23.91334,
    54.9031
   ],
   [
    23.91379,
    54.90326
   ],
   [
    23.91411,
    54.90337
   ],
   [
    23.9143,
    54.90344
   ],
   [
    23.91455,
    54.90353
   ],
   [
    23.91516,
    54.90376
   ],
   [
    23.91595,
    54.90404
   ],
   [
    23.91614,
    54.90411
   ],
   [
    23.91652,
    54.90425
   ],
   [
    23.91688,
    54.90438
   ],
   [
    23.91737,
    54.90455
   ],
   [
    23.91741,
    54.90457
   ],
   [
    23.91772,
    54.90469
   ],
   [
    23.91802,
    54.90479
   ],
   [
    23.91814,
    54.90484
   ],
   [
    23.91888,
    54.90511
   ],
   [
    23.91938,
    54.90529
   ],
   [
    23.91955,
    54.90535
   ],
   [
    23.91995,
    54.9055
   ],
   [
    23.9201,
    54.90556
   ],
   [
    23.92013,
    54.90557
   ],
   [
    23.92033,
    54.90564
   ],
   [
    23.92047,
    54.9057
   ],
   [
    23.92067,
    54.90577
   ],
   [
    23.92087,
    54.90584
   ],
   [
    23.92119,
    54.90596
   ],
   [
    23.92143,
    54.90605
   ],
   [
    23.92162,
    54.90612
   ],
   [
    23.92165,
    54.90613
   ],
   [
    23.92169,
    54.90614
   ],
   [
    23.92205,
    54.90627
   ],
   [
    23.92218,
    54.90632
   ],
   [
    23.92247,
    54.90643
   ],
   [
    23.9227,
    54.90651
   ],
   [
    23.92308,
    54.90666
   ],
   [
    23.9235,
    54.90681
   ],
   [
    23.92394,
    54.90697
   ],
   [
    23.92413,
    54.90704
   ],
   [
    23.92415,
    54.90705
   ],
   [
    23.92458,
    54.9072
   ],
   [
    23.92477,
    54.90727
   ],
   [
    23.92517,
    54.90742
   ],
   [
    23.9255,
    54.90754
   ],
   [
    23.92577,
    54.90765
   ],
   [
    23.92588,
    54.90769
   ],
   [
    23.92644,
    54.9079
   ],
   [
    23.92653,
    54.90793
   ],
   [
    23.9266,
    54.90796
   ],
   [
    23.92726,
    54.90821
   ],
   [
    23.9276,
    54.90833
   ],
   [
    23.92785,
    54.90843
   ],
   [
    23.92792,
    54.90845
   ],
   [
    23.92853,
    54.90867
   ],
   [
    23.92871,
    54.90874
   ],
   [
    23.9293,
    54.90894
   ],
   [
    23.92945,
    54.909
   ],
   [
    23.92975,
    54.90913
   ],
   [
    23.92984,
    54.90916
   ],
   [
    23.92996,
    54.90922
   ],
   [
    23.93042,
    54.90942
   ],
   [
    23.9305,
    54.90946
   ],
   [
    23.93053,
    54.90948
   ],
   [
    23.9311,
    54.90972
   ],
   [
    23.93124,
    54.90978
   ],
   [
    23.93175,
    54.91001
   ],
   [
    23.93176,
    54.91001
   ],
   [
    23.93192,
    54.91009
   ],
   [
    23.93209,
    54.91016
   ],
   [
    23.93216,
    54.91019
   ],
   [
    23.93269,
    54.91043
   ],
   [
    23.93327,
    54.91069
   ],
   [
    23.93371,
    54.91088
   ],
   [
    23.93401,
    54.91101
   ],
   [
    23.9344,
    54.91119
   ],
   [
    23.93469,
    54.91132
   ],
   [
    23.93547,
    54.91167
   ],
   [
    23.93574,
    54.91179
   ],
   [
    23.93585,
    54.91184
   ],
   [
    23.9363,
    54.91204
   ],
   [
    23.93691,
    54.91191
   ],
   [
    23.93776,
    54.91171
   ],
   [
    23.9378,
    54.9117
   ],
   [
    23.93836,
    54.91159
   ],
   [
    23.93848,
    54.91156
   ],
   [
    23.93891,
    54.91147
   ],
   [
    23.93935,
    54.9114
   ],
   [
    23.93956,
    54.91137
   ],
   [
    23.93989,
    54.91133
   ],
   [
    23.94025,
    54.91132
   ],
   [
    23.94059,
    54.91131
   ],
   [
    23.94105,
    54.9113
   ],
   [
    23.94119,
    54.9113
   ],
   [
    23.9415,
    54.91129
   ],
   [
    23.94199,
    54.91128
   ],
   [
    23.94233,
    54.91127
   ],
   [
    23.94255,
    54.91127
   ],
   [
    23.94264,
    54.91127
   ],
   [
    23.94367,
    54.91125
   ],
   [
    23.94385,
    54.91125
   ],
   [
    23.94432,
    54.91125
   ],
   [
    23.94464,
    54.91125
   ],
   [
    23.94531,
    54.91125
   ],
   [
    23.94558,
    54.91125
   ],
   [
    23.94579,
    54.91126
   ],
   [
    23.94581,
    54.91121
   ],
   [
    23.94601,
    54.9111
   ],
   [
    23.94615,
    54.91102
   ],
   [
    23.94629,
    54.91094
   ],
   [
    23.94647,
    54.91084
   ],
   [
    23.94636,
    54.91078
   ],
   [
    23.94569,
    54.91041
   ],
   [
    23.94552,
    54.91032
   ],
   [
    23.9453,
    54.91045
   ],
   [
    23.94498,
    54.91029
   ],
   [
    23.94461,
    54.91051
   ],
   [
    23.94459,
    54.91052
   ],
   [
    23.9452,
    54.91089
   ],
   [
    23.94459,
    54.91052
   ],
   [
    23.94461,
    54.91051
   ],
   [
    23.94498,
    54.91029
   ],
   [
    23.9453,
    54.91045
   ],
   [
    23.94552,
    54.91032
   ],
   [
    23.94569,
    54.91041
   ],
   [
    23.94636,
    54.91078
   ],
   [
    23.94647,
    54.91084
   ],
   [
    23.94629,
    54.91094
   ],
   [
    23.94625,
    54.91105
   ],
   [
    23.94625,
    54.9111
   ],
   [
    23.94629,
    54.91117
   ],
   [
    23.94636,
    54.91124
   ],
   [
    23.94649,
    54.91134
   ],
   [
    23.94654,
    54.91134
   ],
   [
    23.94674,
    54.91137
   ],
   [
    23.94744,
    54.91145
   ],
   [
    23.94766,
    54.91147
   ],
   [
    23.94908,
    54.91164
   ],
   [
    23.94958,
    54.9117
   ],
   [
    23.95011,
    54.91171
   ],
   [
    23.95023,
    54.91172
   ],
   [
    23.95102,
    54.91181
   ],
   [
    23.95173,
    54.91187
   ],
   [
    23.95264,
    54.91196
   ],
   [
    23.95322,
    54.91202
   ],
   [
    23.95367,
    54.91206
   ],
   [
    23.95425,
    54.91213
   ],
   [
    23.95435,
    54.91214
   ],
   [
    23.95498,
    54.91222
   ],
   [
    23.95537,
    54.91225
   ],
   [
    23.956,
    54.91227
   ],
   [
    23.95604,
    54.91227
   ],
   [
    23.95627,
    54.91226
   ],
   [
    23.9565,
    54.91225
   ],
   [
    23.95733,
    54.9122
   ],
   [
    23.9585,
    54.91213
   ],
   [
    23.95877,
    54.91211
   ],
   [
    23.95942,
    54.91208
   ],
   [
    23.95982,
    54.91206
   ],
   [
    23.96038,
    54.91206
   ],
   [
    23.96056,
    54.91206
   ],
   [
    23.96077,
    54.91205
   ],
   [
    23.96153,
    54.91202
   ],
   [
    23.96174,
    54.91201
   ],
   [
    23.9637,
    54.9119
   ],
   [
    23.9639,
    54.91189
   ],
   [
    23.9641,
    54.91188
   ],
   [
    23.96669,
    54.91173
   ],
   [
    23.96691,
    54.91172
   ],
   [
    23.96703,
    54.91171
   ],
   [
    23.9678,
    54.91167
   ],
   [
    23.96855,
    54.91166
   ],
   [
    23.96938,
    54.91167
   ],
   [
    23.96979,
    54.91168
   ],
   [
    23.97055,
    54.9117
   ],
   [
    23.97171,
    54.91172
   ],
   [
    23.97224,
    54.91173
   ],
   [
    23.97255,
    54.91173
   ],
   [
    23.97291,
    54.91172
   ],
   [
    23.97319,
    54.91172
   ],
   [
    23.97373,
    54.91172
   ],
   [
    23.97423,
    54.91173
   ],
   [
    23.97449,
    54.91174
   ],
   [
    23.9748,
    54.91177
   ],
   [
    23.97496,
    54.91181
   ],
   [
    23.97517,
    54.91187
   ],
   [
    23.9753,
    54.91192
   ],
   [
    23.97543,
    54.91198
   ],
   [
    23.97554,
    54.91205
   ],
   [
    23.97561,
    54.91211
   ],
   [
    23.9757,
    54.91221
   ],
   [
    23.97577,
    54.91233
   ],
   [
    23.97582,
    54.91245
   ],
   [
    23.97587,
    54.91264
   ],
   [
    23.97586,
    54.91272
   ],
   [
    23.9759,
    54.91289
   ],
   [
    23.97594,
    54.91301
   ],
   [
    23.976,
    54.91311
   ],
   [
    23.97607,
    54.91322
   ],
   [
    23.97615,
    54.91331
   ],
   [
    23.97625,
    54.9134
   ],
   [
    23.97645,
    54.91355
   ],
   [
    23.97661,
    54.91365
   ],
   [
    23.97667,
    54.91369
   ],
   [
    23.97698,
    54.91386
   ],
   [
    23.97706,
    54.9139
   ],
   [
    23.97742,
    54.91404
   ],
   [
    23.97786,
    54.91421
   ],
   [
    23.97869,
    54.91452
   ],
   [
    23.97987,
    54.91498
   ],
   [
    23.98084,
    54.91534
   ],
   [
    23.98099,
    54.9154
   ],
   [
    23.98203,
    54.91579
   ],
   [
    23.98233,
    54.9159
   ],
   [
    23.98289,
    54.91611
   ],
   [
    23.98312,
    54.91619
   ],
   [
    23.98337,
    54.91626
   ],
   [
    23.98358,
    54.91629
   ],
   [
    23.98391,
    54.91631
   ],
   [
    23.98434,
    54.91633
   ],
   [
    23.98449,
    54.91634
   ],
   [
    23.98455,
    54.91633
   ],
   [
    23.98475,
    54.91631
   ],
   [
    23.98495,
    54.91631
   ],
   [
    23.98515,
    54.91634
   ],
   [
    23.98534,
    54.91638
   ],
   [
    23.98551,
    54.91645
   ],
   [
    23.98566,
    54.91653
   ],
   [
    23.98578,
    54.91663
   ],
   [
    23.98587,
    54.91673
   ],
   [
    23.98591,
    54.91683
   ],
   [
    23.98603,
    54.917
   ],
   [
    23.98612,
    54.9171
   ],
   [
    23.98627,
    54.9172
   ],
   [
    23.98638,
    54.91726
   ],
   [
    23.98654,
    54.91733
   ],
   [
    23.98672,
    54.91741
   ],
   [
    23.98686,
    54.91746
   ],
   [
    23.98713,
    54.91758
   ],
   [
    23.98749,
    54.91773
   ],
   [
    23.98766,
    54.9178
   ],
   [
    23.98816,
    54.918
   ],
   [
    23.98817,
    54.91808
   ],
   [
    23.98814,
    54.91814
   ],
   [
    23.98806,
    54.91822
   ],
   [
    23.98732,
    54.91799
   ],
   [
    23.98652,
    54.91774
   ],
   [
    23.98643,
    54.91784
   ],
   [
    23.98625,
    54.91794
   ],
   [
    23.98614,
    54.91798
   ],
   [
    23.98602,
    54.91799
   ],
   [
    23.986,
    54.91799
   ],
   [
    23.98602,
    54.91799
   ],
   [
    23.98614,
    54.91798
   ],
   [
    23.98625,
    54.91794
   ],
   [
    23.98643,
    54.91784
   ],
   [
    23.98652,
    54.91774
   ],
   [
    23.98615,
    54.91759
   ],
   [
    23.98588,
    54.91751
   ],
   [
    23.98572,
    54.91747
   ],
   [
    23.98556,
    54.91746
   ],
   [
    23.98547,
    54.91746
   ],
   [
    23.98516,
    54.91755
   ],
   [
    23.98494,
    54.91758
   ],
   [
    23.98472,
    54.91758
   ],
   [
    23.9845,
    54.91755
   ],
   [
    23.98429,
    54.9175
   ],
   [
    23.98411,
    54.91743
   ],
   [
    23.98396,
    54.91734
   ],
   [
    23.98383,
    54.91723
   ],
   [
    23.98373,
    54.91707
   ],
   [
    23.98372,
    54.917
   ],
   [
    23.98372,
    54.9169
   ],
   [
    23.98375,
    54.91679
   ],
   [
    23.98381,
    54.91669
   ],
   [
    23.9839,
    54.9166
   ],
   [
    23.98402,
    54.91651
   ],
   [
    23.98416,
    54.91644
   ],
   [
    23.98432,
    54.91638
   ],
   [
    23.98449,
    54.91634
   ],
   [
    23.98455,
    54.91633
   ],
   [
    23.9848,
    54.91624
   ],
   [
    23.98501,
    54.91616
   ],
   [
    23.98515,
    54.91608
   ],
   [
    23.98525,
    54.916
   ],
   [
    23.98532,
    54.91592
   ],
   [
    23.98536,
    54.91588
   ],
   [
    23.9854,
    54.91582
   ],
   [
    23.98544,
    54.91575
   ],
   [
    23.98546,
    54.91565
   ],
   [
    23.98548,
    54.9155
   ],
   [
    23.98552,
    54.91523
   ],
   [
    23.98552,
    54.91508
   ],
   [
    23.98551,
    54.91479
   ],
   [
    23.98549,
    54.91451
   ],
   [
    23.98549,
    54.91441
   ],
   [
    23.98547,
    54.91393
   ],
   [
    23.98546,
    54.91381
   ],
   [
    23.98543,
    54.9137
   ],
   [
    23.98541,
    54.91359
   ],
   [
    23.98532,
    54.91344
   ],
   [
    23.98521,
    54.91326
   ],
   [
    23.98517,
    54.91321
   ],
   [
    23.98479,
    54.91266
   ],
   [
    23.98475,
    54.91261
   ],
   [
    23.98438,
    54.91205
   ],
   [
    23.98422,
    54.91181
   ],
   [
    23.98414,
    54.91169
   ],
   [
    23.9839,
    54.91131
   ],
   [
    23.98364,
    54.91107
   ],
   [
    23.98356,
    54.91097
   ],
   [
    23.98347,
    54.91084
   ],
   [
    23.98344,
    54.9108
   ],
   [
    23.98341,
    54.91076
   ],
   [
    23.98332,
    54.91063
   ],
   [
    23.98313,
    54.91034
   ],
   [
    23.98282,
    54.90986
   ],
   [
    23.98251,
    54.90941
   ],
   [
    23.98246,
    54.90934
   ],
   [
    23.9824,
    54.90925
   ],
   [
    23.98233,
    54.90916
   ],
   [
    23.98226,
    54.90906
   ],
   [
    23.98189,
    54.90842
   ],
   [
    23.98173,
    54.9082
   ],
   [
    23.9812,
    54.9074
   ],
   [
    23.98086,
    54.9069
   ],
   [
    23.98044,
    54.90629
   ],
   [
    23.98029,
    54.90607
   ],
   [
    23.98013,
    54.90583
   ],
   [
    23.97997,
    54.90561
   ],
   [
    23.97995,
    54.90557
   ],
   [
    23.97989,
    54.90548
   ],
   [
    23.97977,
    54.90534
   ],
   [
    23.97966,
    54.90526
   ],
   [
    23.9794,
    54.90514
   ],
   [
    23.97911,
    54.90497
   ],
   [
    23.97895,
    54.90489
   ],
   [
    23.97889,
    54.90485
   ],
   [
    23.97879,
    54.90481
   ],
   [
    23.97865,
    54.90478
   ],
   [
    23.97856,
    54.90475
   ],
   [
    23.97848,
    54.90469
   ],
   [
    23.97844,
    54.90464
   ],
   [
    23.97841,
    54.90458
   ],
   [
    23.97841,
    54.90453
   ],
   [
    23.97827,
    54.90438
   ],
   [
    23.97806,
    54.90419
   ],
   [
    23.97791,
    54.90406
   ],
   [
    23.9778,
    54.90393
   ],
   [
    23.97766,
    54.90382
   ],
   [
    23.9756,
    54.90228
   ],
   [
    23.97549,
    54.90221
   ],
   [
    23.97509,
    54.90191
   ],
   [
    23.9749,
    54.90182
   ],
   [
    23.97486,
    54.90179
   ],
   [
    23.97476,
    54.90174
   ],
   [
    23.97465,
    54.9017
   ],
   [
    23.97448,
    54.90167
   ],
   [
    23.97439,
    54.90167
   ],
   [
    23.97428,
    54.90165
   ],
   [
    23.97417,
    54.90163
   ],
   [
    23.97408,
    54.90159
   ],
   [
    23.974,
    54.90155
   ],
   [
    23.97394,
    54.90149
   ],
   [
    23.9739,
    54.90145
   ],
   [
    23.97387,
    54.9014
   ],
   [
    23.97386,
    54.90135
   ],
   [
    23.97386,
    54.90129
   ],
   [
    23.97388,
    54.90123
   ],
   [
    23.97392,
    54.90118
   ],
   [
    23.97396,
    54.90113
   ],
   [
    23.97403,
    54.90109
   ],
   [
    23.97389,
    54.90098
   ],
   [
    23.97389,
    54.90095
   ],
   [
    23.9739,
    54.90073
   ],
   [
    23.97391,
    54.90061
   ],
   [
    23.97393,
    54.90025
   ],
   [
    23.97397,
    54.89961
   ],
   [
    23.97397,
    54.89949
   ],
   [
    23.97399,
    54.89924
   ],
   [
    23.974,
    54.89899
   ],
   [
    23.97401,
    54.89884
   ],
   [
    23.97401,
    54.89878
   ],
   [
    23.97404,
    54.89839
   ],
   [
    23.97403,
    54.89828
   ],
   [
    23.97402,
    54.89821
   ],
   [
    23.974,
    54.89814
   ],
   [
    23.97398,
    54.89807
   ],
   [
    23.97393,
    54.89798
   ],
   [
    23.97388,
    54.8979
   ],
   [
    23.97374,
    54.89772
   ],
   [
    23.97358,
    54.89754
   ],
   [
    23.97352,
    54.89748
   ],
   [
    23.97349,
    54.89744
   ],
   [
    23.97342,
    54.89738
   ],
   [
    23.97336,
    54.89734
   ],
   [
    23.97329,
    54.89731
   ],
   [
    23.97316,
    54.89726
   ],
   [
    23.97303,
    54.89724
   ],
   [
    23.97251,
    54.89719
   ],
   [
    23.97183,
    54.89713
   ],
   [
    23.97147,
    54.8971
   ],
   [
    23.97043,
    54.897
   ],
   [
    23.97006,
    54.89696
   ],
   [
    23.96981,
    54.89694
   ],
   [
    23.96919,
    54.89688
   ],
   [
    23.96904,
    54.89687
   ],
   [
    23.96893,
    54.89686
   ],
   [
    23.96834,
    54.89677
   ],
   [
    23.9674,
    54.89663
   ],
   [
    23.96678,
    54.89653
   ],
   [
    23.96534,
    54.89632
   ],
   [
    23.96478,
    54.89622
   ],
   [
    23.9643,
    54.89612
   ],
   [
    23.96315,
    54.89586
   ],
   [
    23.96282,
    54.89581
   ],
   [
    23.96236,
    54.89575
   ],
   [
    23.96215,
    54.89572
   ],
   [
    23.96198,
    54.89569
   ],
   [
    23.96167,
    54.89559
   ],
   [
    23.96127,
    54.89545
   ],
   [
    23.96114,
    54.8954
   ],
   [
    23.96073,
    54.89525
   ],
   [
    23.96038,
    54.89513
   ],
   [
    23.95929,
    54.89474
   ],
   [
    23.95922,
    54.89471
   ],
   [
    23.95926,
    54.89468
   ],
   [
    23.95968,
    54.8943
   ],
   [
    23.95982,
    54.89416
   ],
   [
    23.95992,
    54.89404
   ],
   [
    23.95996,
    54.89397
   ],
   [
    23.95999,
    54.89391
   ],
   [
    23.96,
    54.89386
   ],
   [
    23.96001,
    54.89378
   ],
   [
    23.96,
    54.89372
   ],
   [
    23.95997,
    54.89366
   ],
   [
    23.95992,
    54.89359
   ],
   [
    23.9598,
    54.89353
   ],
   [
    23.95938,
    54.8934
   ],
   [
    23.9593,
    54.89336
   ],
   [
    23.95922,
    54.8933
   ],
   [
    23.95919,
    54.8932
   ],
   [
    23.95916,
    54.89309
   ],
   [
    23.95909,
    54.89303
   ],
   [
    23.95883,
    54.89294
   ],
   [
    23.95873,
    54.89288
   ],
   [
    23.95867,
    54.89284
   ],
   [
    23.95861,
    54.89276
   ],
   [
    23.95851,
    54.89265
   ],
   [
    23.95843,
    54.89259
   ],
   [
    23.95814,
    54.89243
   ],
   [
    23.95806,
    54.89239
   ],
   [
    23.95801,
    54.89236
   ],
   [
    23.95796,
    54.89228
   ],
   [
    23.95793,
    54.8922
   ],
   [
    23.95791,
    54.89209
   ],
   [
    23.95789,
    54.89195
   ],
   [
    23.95788,
    54.89189
   ],
   [
    23.95782,
    54.89181
   ],
   [
    23.95775,
    54.89175
   ],
   [
    23.95769,
    54.89171
   ],
   [
    23.95757,
    54.89166
   ],
   [
    23.95746,
    54.89162
   ],
   [
    23.95738,
    54.89155
   ],
   [
    23.95733,
    54.8915
   ],
   [
    23.95727,
    54.89133
   ],
   [
    23.95724,
    54.89129
   ],
   [
    23.95718,
    54.89125
   ],
   [
    23.95696,
    54.89115
   ],
   [
    23.9569,
    54.89111
   ],
   [
    23.95685,
    54.89109
   ],
   [
    23.95682,
    54.89105
   ],
   [
    23.95679,
    54.89099
   ],
   [
    23.95678,
    54.8909
   ],
   [
    23.95677,
    54.89076
   ],
   [
    23.95676,
    54.89066
   ],
   [
    23.95673,
    54.89049
   ],
   [
    23.95669,
    54.89029
   ],
   [
    23.9566,
    54.89006
   ],
   [
    23.95654,
    54.88989
   ],
   [
    23.95652,
    54.88968
   ],
   [
    23.95645,
    54.88948
   ],
   [
    23.95634,
    54.88905
   ],
   [
    23.9563,
    54.88884
   ],
   [
    23.95627,
    54.88863
   ],
   [
    23.95625,
    54.88851
   ],
   [
    23.95626,
    54.88838
   ],
   [
    23.95619,
    54.88796
   ],
   [
    23.95618,
    54.88785
   ],
   [
    23.95616,
    54.88763
   ],
   [
    23.95615,
    54.88751
   ],
   [
    23.95611,
    54.88732
   ],
   [
    23.95609,
    54.88722
   ],
   [
    23.95609,
    54.88713
   ],
   [
    23.95614,
    54.88697
   ],
   [
    23.95619,
    54.88686
   ],
   [
    23.9562,
    54.88674
   ],
   [
    23.95618,
    54.88628
   ],
   [
    23.95613,
    54.88573
   ],
   [
    23.95607,
    54.88539
   ],
   [
    23.956,
    54.88504
   ],
   [
    23.95598,
    54.8849
   ],
   [
    23.95599,
    54.88475
   ],
   [
    23.95605,
    54.88443
   ],
   [
    23.9562,
    54.88386
   ],
   [
    23.9563,
    54.88358
   ],
   [
    23.95652,
    54.8831
   ],
   [
    23.95663,
    54.88287
   ],
   [
    23.95692,
    54.88232
   ],
   [
    23.957,
    54.88215
   ],
   [
    23.957,
    54.88215
   ],
   [
    23.957,
    54.88215
   ],
   [
    23.95692,
    54.88232
   ],
   [
    23.95663,
    54.88287
   ],
   [
    23.95652,
    54.8831
   ],
   [
    23.9563,
    54.88358
   ],
   [
    23.9562,
    54.88386
   ],
   [
    23.95605,
    54.88443
   ],
   [
    23.95599,
    54.88475
   ],
   [
    23.95598,
    54.8849
   ],
   [
    23.956,
    54.88504
   ],
   [
    23.95607,
    54.88539
   ],
   [
    23.95613,
    54.88573
   ],
   [
    23.95618,
    54.88628
   ],
   [
    23.9562,
    54.88674
   ],
   [
    23.95619,
    54.88686
   ],
   [
    23.95614,
    54.88697
   ],
   [
    23.95609,
    54.88713
   ],
   [
    23.95609,
    54.88722
   ],
   [
    23.95611,
    54.88732
   ],
   [
    23.95615,
    54.88751
   ],
   [
    23.95616,
    54.88763
   ],
   [
    23.95618,
    54.88785
   ],
   [
    23.95619,
    54.88796
   ],
   [
    23.95626,
    54.88838
   ],
   [
    23.95625,
    54.88851
   ],
   [
    23.95627,
    54.88863
   ],
   [
    23.9563,
    54.88884
   ],
   [
    23.95634,
    54.88905
   ],
   [
    23.95645,
    54.88948
   ],
   [
    23.95652,
    54.88968
   ],
   [
    23.95654,
    54.88989
   ],
   [
    23.9566,
    54.89006
   ],
   [
    23.95669,
    54.89029
   ],
   [
    23.95673,
    54.89049
   ],
   [
    23.95676,
    54.89066
   ],
   [
    23.95677,
    54.89076
   ],
   [
    23.95678,
    54.8909
   ],
   [
    23.95679,
    54.89099
   ],
   [
    23.95682,
    54.89105
   ],
   [
    23.95685,
    54.89109
   ],
   [
    23.9569,
    54.89111
   ],
   [
    23.95696,
    54.89115
   ],
   [
    23.95718,
    54.89125
   ],
   [
    23.95724,
    54.89129
   ],
   [
    23.95727,
    54.89133
   ],
   [
    23.95733,
    54.8915
   ],
   [
    23.95738,
    54.89155
   ],
   [
    23.95746,
    54.89162
   ],
   [
    23.95757,
    54.89166
   ],
   [
    23.95769,
    54.89171
   ],
   [
    23.95775,
    54.89175
   ],
   [
    23.95782,
    54.89181
   ],
   [
    23.95788,
    54.89189
   ],
   [
    23.95789,
    54.89195
   ],
   [
    23.95791,
    54.89209
   ],
   [
    23.95793,
    54.8922
   ],
   [
    23.95796,
    54.89228
   ],
   [
    23.95801,
    54.89236
   ],
   [
    23.95806,
    54.89239
   ],
   [
    23.95814,
    54.89243
   ],
   [
    23.95843,
    54.89259
   ],
   [
    23.95851,
    54.89265
   ],
   [
    23.95861,
    54.89276
   ],
   [
    23.95867,
    54.89284
   ],
   [
    23.95873,
    54.89288
   ],
   [
    23.95883,
    54.89294
   ],
   [
    23.95909,
    54.89303
   ],
   [
    23.95916,
    54.89309
   ],
   [
    23.95919,
    54.8932
   ],
   [
    23.95922,
    54.8933
   ],
   [
    23.9593,
    54.89336
   ],
   [
    23.95938,
    54.8934
   ],
   [
    23.9598,
    54.89353
   ],
   [
    23.95992,
    54.89359
   ],
   [
    23.95997,
    54.89366
   ],
   [
    23.96,
    54.89372
   ],
   [
    23.96001,
    54.89378
   ],
   [
    23.96,
    54.89386
   ],
   [
    23.95999,
    54.89391
   ],
   [
    23.95996,
    54.89397
   ],
   [
    23.95992,
    54.89404
   ],
   [
    23.95982,
    54.89416
   ],
   [
    23.95968,
    54.8943
   ],
   [
    23.95926,
    54.89468
   ],
   [
    23.95922,
    54.89471
   ],
   [
    23.95871,
    54.89454
   ],
   [
    23.95851,
    54.89447
   ],
   [
    23.95788,
    54.89426
   ],
   [
    23.95752,
    54.89414
   ],
   [
    23.95719,
    54.89403
   ],
   [
    23.95689,
    54.89392
   ],
   [
    23.95665,
    54.89384
   ],
   [
    23.95638,
    54.89378
   ],
   [
    23.95609,
    54.89368
   ],
   [
    23.95591,
    54.89364
   ],
   [
    23.95575,
    54.89364
   ],
   [
    23.95571,
    54.89366
   ],
   [
    23.95566,
    54.89368
   ],
   [
    23.95568,
    54.89379
   ],
   [
    23.95569,
    54.89382
   ],
   [
    23.95573,
    54.89398
   ],
   [
    23.95576,
    54.89409
   ],
   [
    23.9558,
    54.89427
   ],
   [
    23.95583,
    54.89437
   ],
   [
    23.95587,
    54.8945
   ],
   [
    23.95589,
    54.89456
   ],
   [
    23.95595,
    54.89474
   ],
   [
    23.95598,
    54.89485
   ],
   [
    23.95601,
    54.89493
   ],
   [
    23.95602,
    54.89498
   ],
   [
    23.95609,
    54.89517
   ],
   [
    23.95618,
    54.89546
   ],
   [
    23.95623,
    54.89561
   ],
   [
    23.95628,
    54.89578
   ],
   [
    23.95633,
    54.89594
   ],
   [
    23.95637,
    54.89607
   ],
   [
    23.95643,
    54.89626
   ],
   [
    23.95646,
    54.89634
   ],
   [
    23.95653,
    54.89664
   ],
   [
    23.95652,
    54.89676
   ],
   [
    23.9565,
    54.89682
   ],
   [
    23.95648,
    54.89689
   ],
   [
    23.95647,
    54.89692
   ],
   [
    23.95641,
    54.89709
   ],
   [
    23.95633,
    54.89724
   ],
   [
    23.95631,
    54.89728
   ],
   [
    23.95621,
    54.89748
   ],
   [
    23.95617,
    54.89755
   ],
   [
    23.95612,
    54.89764
   ],
   [
    23.95604,
    54.89774
   ],
   [
    23.95581,
    54.89769
   ],
   [
    23.95503,
    54.89749
   ],
   [
    23.95438,
    54.89732
   ],
   [
    23.95388,
    54.89719
   ],
   [
    23.95352,
    54.89709
   ],
   [
    23.95267,
    54.89682
   ],
   [
    23.95233,
    54.89669
   ],
   [
    23.95191,
    54.89651
   ],
   [
    23.95151,
    54.89632
   ],
   [
    23.9505,
    54.89581
   ],
   [
    23.9502,
    54.89566
   ],
   [
    23.94997,
    54.89558
   ],
   [
    23.94972,
    54.8955
   ],
   [
    23.94934,
    54.8954
   ],
   [
    23.94912,
    54.89537
   ],
   [
    23.94887,
    54.89533
   ],
   [
    23.94847,
    54.89531
   ],
   [
    23.94817,
    54.8953
   ],
   [
    23.94787,
    54.89531
   ],
   [
    23.94734,
    54.89536
   ],
   [
    23.9468,
    54.89542
   ],
   [
    23.94666,
    54.89543
   ],
   [
    23.94611,
    54.89551
   ],
   [
    23.94583,
    54.89553
   ],
   [
    23.94563,
    54.89553
   ],
   [
    23.94541,
    54.89552
   ],
   [
    23.94521,
    54.8955
   ],
   [
    23.94497,
    54.89546
   ],
   [
    23.94464,
    54.89538
   ],
   [
    23.9444,
    54.89532
   ],
   [
    23.94423,
    54.89525
   ],
   [
    23.94404,
    54.89514
   ],
   [
    23.94377,
    54.89495
   ],
   [
    23.94357,
    54.89477
   ],
   [
    23.94348,
    54.89468
   ],
   [
    23.94341,
    54.89458
   ],
   [
    23.94332,
    54.8944
   ],
   [
    23.9433,
    54.89435
   ],
   [
    23.94325,
    54.89426
   ],
   [
    23.94322,
    54.89419
   ],
   [
    23.94309,
    54.89395
   ],
   [
    23.94293,
    54.89372
   ],
   [
    23.94279,
    54.89354
   ],
   [
    23.94256,
    54.89331
   ],
   [
    23.9423,
    54.89307
   ],
   [
    23.9419,
    54.8927
   ],
   [
    23.9415,
    54.89232
   ],
   [
    23.94114,
    54.89199
   ],
   [
    23.94097,
    54.89183
   ],
   [
    23.9407,
    54.89161
   ],
   [
    23.9403,
    54.89132
   ],
   [
    23.94,
    54.89113
   ],
   [
    23.93989,
    54.89106
   ],
   [
    23.93954,
    54.89085
   ],
   [
    23.93875,
    54.89038
   ],
   [
    23.93834,
    54.89016
   ],
   [
    23.93713,
    54.88953
   ],
   [
    23.9362,
    54.88903
   ],
   [
    23.93547,
    54.88864
   ],
   [
    23.93475,
    54.88826
   ],
   [
    23.93448,
    54.88813
   ],
   [
    23.93425,
    54.88805
   ],
   [
    23.93406,
    54.888
   ],
   [
    23.93373,
    54.88792
   ],
   [
    23.93346,
    54.88786
   ],
   [
    23.93265,
    54.88767
   ],
   [
    23.93247,
    54.88762
   ],
   [
    23.93217,
    54.8875
   ],
   [
    23.93188,
    54.88736
   ],
   [
    23.9315,
    54.88718
   ],
   [
    23.9312,
    54.88702
   ],
   [
    23.93117,
    54.88701
   ],
   [
    23.93088,
    54.88686
   ],
   [
    23.93007,
    54.88643
   ],
   [
    23.92955,
    54.88616
   ],
   [
    23.92948,
    54.88612
   ],
   [
    23.92921,
    54.8859
   ],
   [
    23.92826,
    54.8854
   ],
   [
    23.92801,
    54.88526
   ],
   [
    23.92776,
    54.88513
   ],
   [
    23.92731,
    54.88488
   ],
   [
    23.92689,
    54.88463
   ],
   [
    23.92641,
    54.88433
   ],
   [
    23.92621,
    54.8842
   ],
   [
    23.92605,
    54.88409
   ],
   [
    23.9259,
    54.88397
   ],
   [
    23.9255,
    54.88364
   ],
   [
    23.92266,
    54.88096
   ],
   [
    23.92254,
    54.88083
   ],
   [
    23.922,
    54.88029
   ],
   [
    23.92174,
    54.88009
   ],
   [
    23.92157,
    54.87985
   ],
   [
    23.92142,
    54.87955
   ],
   [
    23.92131,
    54.87923
   ],
   [
    23.92123,
    54.87896
   ],
   [
    23.92125,
    54.87861
   ],
   [
    23.92127,
    54.87824
   ],
   [
    23.92131,
    54.87785
   ],
   [
    23.92135,
    54.87757
   ],
   [
    23.92138,
    54.8774
   ],
   [
    23.92142,
    54.87722
   ],
   [
    23.92146,
    54.87707
   ],
   [
    23.92164,
    54.87648
   ],
   [
    23.92189,
    54.87559
   ],
   [
    23.92192,
    54.8755
   ],
   [
    23.92194,
    54.8754
   ],
   [
    23.92194,
    54.8753
   ],
   [
    23.92192,
    54.87517
   ],
   [
    23.92188,
    54.87505
   ],
   [
    23.92181,
    54.87494
   ],
   [
    23.92171,
    54.87482
   ],
   [
    23.92158,
    54.8747
   ],
   [
    23.92137,
    54.87455
   ],
   [
    23.92113,
    54.87444
   ],
   [
    23.92095,
    54.87438
   ],
   [
    23.92077,
    54.87433
   ],
   [
    23.92059,
    54.87429
   ],
   [
    23.92042,
    54.87427
   ],
   [
    23.92024,
    54.87425
   ],
   [
    23.91995,
    54.87423
   ],
   [
    23.91891,
    54.87421
   ],
   [
    23.91807,
    54.87418
   ],
   [
    23.91709,
    54.87416
   ],
   [
    23.91665,
    54.87417
   ],
   [
    23.91639,
    54.87419
   ],
   [
    23.91618,
    54.8742
   ],
   [
    23.91575,
    54.87425
   ],
   [
    23.91541,
    54.8743
   ],
   [
    23.91512,
    54.87436
   ],
   [
    23.91452,
    54.8745
   ],
   [
    23.91415,
    54.87459
   ],
   [
    23.91404,
    54.87462
   ],
   [
    23.91397,
    54.87464
   ],
   [
    23.91355,
    54.87475
   ],
   [
    23.91352,
    54.87494
   ],
   [
    23.91351,
    54.87499
   ],
   [
    23.91351,
    54.87505
   ],
   [
    23.91368,
    54.87505
   ],
   [
    23.91399,
    54.87504
   ],
   [
    23.91421,
    54.87503
   ],
   [
    23.91543,
    54.87499
   ],
   [
    23.91548,
    54.87505
   ],
   [
    23.91556,
    54.87511
   ],
   [
    23.91562,
    54.87513
   ],
   [
    23.91571,
    54.87515
   ],
   [
    23.91602,
    54.87514
   ],
   [
    23.91665,
    54.87511
   ],
   [
    23.91689,
    54.87511
   ],
   [
    23.91708,
    54.87512
   ],
   [
    23.91722,
    54.87515
   ],
   [
    23.91738,
    54.8752
   ],
   [
    23.9175,
    54.87526
   ],
   [
    23.91761,
    54.87533
   ],
   [
    23.91793,
    54.8756
   ],
   [
    23.91797,
    54.87564
   ],
   [
    23.91798,
    54.8757
   ],
   [
    23.91815,
    54.8768
   ],
   [
    23.91819,
    54.87699
   ],
   [
    23.91821,
    54.87706
   ],
   [
    23.91822,
    54.87732
   ],
   [
    23.9182,
    54.87741
   ],
   [
    23.91817,
    54.87751
   ],
   [
    23.91809,
    54.87763
   ],
   [
    23.91803,
    54.87772
   ],
   [
    23.9179,
    54.87789
   ],
   [
    23.91775,
    54.87806
   ],
   [
    23.91767,
    54.87814
   ],
   [
    23.91753,
    54.87825
   ],
   [
    23.91685,
    54.87873
   ],
   [
    23.91609,
    54.8793
   ],
   [
    23.91573,
    54.87956
   ],
   [
    23.91564,
    54.87963
   ],
   [
    23.91508,
    54.88007
   ],
   [
    23.91476,
    54.88031
   ],
   [
    23.9147,
    54.88036
   ],
   [
    23.91467,
    54.88038
   ],
   [
    23.91463,
    54.88041
   ],
   [
    23.91415,
    54.88067
   ],
   [
    23.91373,
    54.88081
   ],
   [
    23.91338,
    54.8809
   ],
   [
    23.91324,
    54.88092
   ],
   [
    23.9131,
    54.88094
   ],
   [
    23.91299,
    54.88094
   ],
   [
    23.91287,
    54.88095
   ],
   [
    23.91269,
    54.88095
   ],
   [
    23.9124,
    54.88094
   ],
   [
    23.91216,
    54.88093
   ],
   [
    23.91138,
    54.88086
   ],
   [
    23.9113,
    54.88086
   ],
   [
    23.91118,
    54.88085
   ],
   [
    23.91087,
    54.88082
   ],
   [
    23.91001,
    54.88075
   ],
   [
    23.90967,
    54.88072
   ],
   [
    23.90887,
    54.88065
   ],
   [
    23.90841,
    54.88061
   ],
   [
    23.90799,
    54.88058
   ],
   [
    23.90768,
    54.88058
   ],
   [
    23.90759,
    54.88058
   ],
   [
    23.90751,
    54.88058
   ],
   [
    23.9074,
    54.88059
   ],
   [
    23.90723,
    54.88061
   ],
   [
    23.90713,
    54.88063
   ],
   [
    23.90679,
    54.88069
   ],
   [
    23.90632,
    54.88085
   ],
   [
    23.9057,
    54.88117
   ],
   [
    23.90542,
    54.88127
   ],
   [
    23.90512,
    54.88135
   ],
   [
    23.90479,
    54.88141
   ],
   [
    23.90457,
    54.88143
   ],
   [
    23.9045,
    54.88144
   ],
   [
    23.90438,
    54.88144
   ],
   [
    23.90412,
    54.88144
   ],
   [
    23.90384,
    54.88142
   ],
   [
    23.90364,
    54.88138
   ],
   [
    23.90341,
    54.88134
   ],
   [
    23.90314,
    54.88126
   ],
   [
    23.90291,
    54.88119
   ],
   [
    23.9027,
    54.8811
   ],
   [
    23.90255,
    54.88102
   ],
   [
    23.90241,
    54.88093
   ],
   [
    23.90211,
    54.88067
   ],
   [
    23.90149,
    54.88006
   ],
   [
    23.90115,
    54.87972
   ],
   [
    23.90111,
    54.87968
   ],
   [
    23.90104,
    54.87963
   ],
   [
    23.90053,
    54.87913
   ],
   [
    23.90045,
    54.87907
   ],
   [
    23.90036,
    54.87901
   ],
   [
    23.90027,
    54.87897
   ],
   [
    23.90016,
    54.87895
   ],
   [
    23.90005,
    54.87895
   ],
   [
    23.89992,
    54.87895
   ],
   [
    23.89981,
    54.87898
   ],
   [
    23.89968,
    54.87903
   ],
   [
    23.89957,
    54.87909
   ],
   [
    23.89939,
    54.8792
   ],
   [
    23.89926,
    54.87926
   ],
   [
    23.89917,
    54.87931
   ],
   [
    23.89907,
    54.87937
   ],
   [
    23.89895,
    54.87944
   ],
   [
    23.8988,
    54.87952
   ],
   [
    23.89863,
    54.87962
   ],
   [
    23.89831,
    54.87982
   ],
   [
    23.89807,
    54.88
   ],
   [
    23.89801,
    54.88007
   ],
   [
    23.89797,
    54.88016
   ],
   [
    23.89782,
    54.88069
   ],
   [
    23.89777,
    54.8808
   ],
   [
    23.89773,
    54.8809
   ],
   [
    23.89757,
    54.88111
   ],
   [
    23.89738,
    54.88131
   ],
   [
    23.89717,
    54.88148
   ],
   [
    23.89708,
    54.88154
   ],
   [
    23.89684,
    54.88167
   ],
   [
    23.89669,
    54.88174
   ],
   [
    23.89661,
    54.88177
   ],
   [
    23.89647,
    54.88182
   ],
   [
    23.89633,
    54.88186
   ],
   [
    23.89625,
    54.88188
   ],
   [
    23.89594,
    54.88191
   ],
   [
    23.89556,
    54.88194
   ],
   [
    23.89525,
    54.88196
   ],
   [
    23.89511,
    54.88199
   ],
   [
    23.89501,
    54.88203
   ],
   [
    23.8945,
    54.88227
   ],
   [
    23.89444,
    54.8823
   ],
   [
    23.89431,
    54.88233
   ],
   [
    23.8941,
    54.88236
   ],
   [
    23.89428,
    54.88285
   ],
   [
    23.89433,
    54.88298
   ],
   [
    23.8945,
    54.88343
   ],
   [
    23.89457,
    54.88361
   ],
   [
    23.89461,
    54.88372
   ],
   [
    23.89478,
    54.88418
   ],
   [
    23.89487,
    54.88442
   ],
   [
    23.8949,
    54.88452
   ],
   [
    23.89502,
    54.88483
   ],
   [
    23.89522,
    54.88537
   ],
   [
    23.89526,
    54.88545
   ],
   [
    23.8953,
    54.88555
   ],
   [
    23.89533,
    54.88564
   ],
   [
    23.89543,
    54.8859
   ],
   [
    23.89559,
    54.88633
   ],
   [
    23.89566,
    54.88653
   ],
   [
    23.89572,
    54.88668
   ],
   [
    23.89576,
    54.88679
   ],
   [
    23.8958,
    54.8869
   ],
   [
    23.89587,
    54.8871
   ],
   [
    23.89592,
    54.88727
   ],
   [
    23.89593,
    54.88736
   ],
   [
    23.89591,
    54.88754
   ],
   [
    23.89587,
    54.88773
   ],
   [
    23.89579,
    54.8879
   ],
   [
    23.89568,
    54.88809
   ],
   [
    23.8956,
    54.88819
   ],
   [
    23.89555,
    54.88825
   ],
   [
    23.89539,
    54.8884
   ],
   [
    23.89504,
    54.88868
   ],
   [
    23.89488,
    54.88881
   ],
   [
    23.89458,
    54.8891
   ],
   [
    23.89446,
    54.88928
   ],
   [
    23.89428,
    54.88955
   ],
   [
    23.89385,
    54.89018
   ],
   [
    23.89358,
    54.89057
   ],
   [
    23.89329,
    54.89098
   ],
   [
    23.89319,
    54.8911
   ],
   [
    23.89309,
    54.8912
   ],
   [
    23.89297,
    54.89129
   ],
   [
    23.8928,
    54.89138
   ],
   [
    23.89257,
    54.89147
   ],
   [
    23.89202,
    54.89167
   ],
   [
    23.89156,
    54.89183
   ],
   [
    23.89075,
    54.89211
   ],
   [
    23.89043,
    54.89221
   ],
   [
    23.89014,
    54.89229
   ],
   [
    23.88981,
    54.89238
   ],
   [
    23.88974,
    54.8924
   ],
   [
    23.88957,
    54.89242
   ],
   [
    23.88939,
    54.89242
   ],
   [
    23.88922,
    54.89243
   ],
   [
    23.88866,
    54.89247
   ],
   [
    23.88839,
    54.89249
   ],
   [
    23.88818,
    54.89249
   ],
   [
    23.88805,
    54.89249
   ],
   [
    23.88771,
    54.89247
   ],
   [
    23.88755,
    54.89247
   ],
   [
    23.8874,
    54.89249
   ],
   [
    23.8874,
    54.89262
   ],
   [
    23.88742,
    54.89305
   ],
   [
    23.88746,
    54.89432
   ],
   [
    23.88749,
    54.89494
   ],
   [
    23.88749,
    54.89497
   ],
   [
    23.88749,
    54.89513
   ],
   [
    23.88759,
    54.8951
   ],
   [
    23.88778,
    54.89506
   ],
   [
    23.88811,
    54.89501
   ],
   [
    23.88841,
    54.89498
   ],
   [
    23.88882,
    54.89496
   ],
   [
    23.8899,
    54.89494
   ],
   [
    23.89095,
    54.89493
   ],
   [
    23.89151,
    54.89492
   ],
   [
    23.89176,
    54.89491
   ],
   [
    23.89236,
    54.89489
   ],
   [
    23.89248,
    54.89489
   ],
   [
    23.89304,
    54.89485
   ],
   [
    23.89361,
    54.89481
   ],
   [
    23.89415,
    54.89475
   ],
   [
    23.89465,
    54.89469
   ],
   [
    23.89478,
    54.89467
   ],
   [
    23.89525,
    54.89461
   ],
   [
    23.89537,
    54.89486
   ],
   [
    23.89552,
    54.8951
   ],
   [
    23.89564,
    54.89526
   ],
   [
    23.89584,
    54.89552
   ],
   [
    23.89592,
    54.89565
   ],
   [
    23.89599,
    54.89578
   ],
   [
    23.89604,
    54.89592
   ],
   [
    23.89609,
    54.89616
   ],
   [
    23.89613,
    54.8964
   ],
   [
    23.89615,
    54.89655
   ],
   [
    23.89615,
    54.89668
   ],
   [
    23.89615,
    54.89683
   ],
   [
    23.89616,
    54.897
   ],
   [
    23.8962,
    54.89762
   ],
   [
    23.8962,
    54.8977
   ],
   [
    23.8962,
    54.89778
   ],
   [
    23.8962,
    54.89786
   ],
   [
    23.89619,
    54.89799
   ],
   [
    23.8962,
    54.89808
   ],
   [
    23.89622,
    54.89813
   ],
   [
    23.89626,
    54.89824
   ],
   [
    23.89647,
    54.89822
   ],
   [
    23.89665,
    54.89821
   ],
   [
    23.89725,
    54.89815
   ],
   [
    23.89821,
    54.89808
   ],
   [
    23.89839,
    54.89806
   ],
   [
    23.89892,
    54.89802
   ],
   [
    23.89895,
    54.89802
   ],
   [
    23.89999,
    54.89794
   ],
   [
    23.90018,
    54.89792
   ],
   [
    23.90036,
    54.89793
   ],
   [
    23.90061,
    54.89793
   ],
   [
    23.90083,
    54.89793
   ],
   [
    23.90107,
    54.89792
   ],
   [
    23.90131,
    54.89791
   ],
   [
    23.90182,
    54.8979
   ],
   [
    23.90189,
    54.89791
   ],
   [
    23.90192,
    54.89791
   ],
   [
    23.90204,
    54.89795
   ],
   [
    23.90221,
    54.89801
   ],
   [
    23.90275,
    54.89822
   ],
   [
    23.90351,
    54.8985
   ],
   [
    23.90353,
    54.89851
   ],
   [
    23.90358,
    54.89852
   ]
  ]
 }
}