{
 "type": "Feature",
 "properties": {
  "name": "vilnius-loop",
  "source": "OSRM driving route over OSM Lithuania"
 },
 "geometry": {
  "type": "LineString",
  "coordinates": [
   [
    25.27123,
    54.6957
   ],
   [
    25.27097,
    54.69578
   ],
   [
    25.27069,
    54.69586
   ],
   [
    25.27041,
    54.69592
   ],
   [
    25.27002,
    54.696
   ],
   [
    25.26966,
    54.69606
   ],
   [
    25.26936,
    54.6961
   ],
   [
    25.269,
    54.69614
   ],
   [
    25.26868,
    54.69616
   ],
   [
    25.26832,
    54.69618
   ],
   [
    25.26784,
    54.6962
   ],
   [
    25.26762,
    54.6962
   ],
   [
    25.26762,
    54.69629
   ],
   [
    25.26751,
    54.69708
   ],
   [
    25.26749,
    54.69757
   ],
   [
    25.26748,
    54.69781
   ],
   [
    25.26749,
    54.69788
   ],
   [
    25.26757,
    54.69807
   ],
   [
    25.26764,
    54.69819
   ],
   [
    25.2677,
    54.6983
   ],
   [
    25.26774,
    54.69838
   ],
   [
    25.26797,
    54.69893
   ],
   [
    25.268,
    54.69899
   ],
   [
    25.26807,
    54.69916
   ],
   [
    25.26812,
    54.69926
   ],
   [
    25.26817,
    54.69934
   ],
   [
    25.26825,
    54.69943
   ],
   [
    25.26835,
    54.69952
   ],
   [
    25.26846,
    54.6996
   ],
   [
    25.26858,
    54.69967
   ],
   [
    25.26871,
    54.69976
   ],
   [
    25.26901,
    54.69996
   ],
   [
    25.26925,
    54.70012
   ],
   [
    25.26969,
    54.70044
   ],
   [
    25.2698,
    54.70053
   ],
   [
    25.26984,
    54.70057
   ],
   [
    25.26989,
    54.70063
   ],
   [
    25.2699,
    54.70064
   ],
   [
    25.26993,
    54.70073
   ],
   [
    25.26995,
    54.70078
   ],
   [
    25.26997,
    54.70103
   ],
   [
    25.27,
    54.70142
   ],
   [
    25.27003,
    54.70181
   ],
   [
    25.27007,
    54.70219
   ],
   [
    25.2701,
    54.70233
   ],
   [
    25.27021,
    54.70286
   ],
   [
    25.27023,
    54.703
   ],
   [
    25.27028,
    54.70323
   ],
   [
    25.27039,
    54.70363
   ],
   [
    25.2704,
    54.7037
   ],
   [
    25.27044,
    54.70382
   ],
   [
    25.27047,
    54.70392
   ],
   [
    25.27053,
    54.70412
   ],
   [
    25.27059,
    54.70431
   ],
   [
    25.27066,
    54.70454
   ],
   [
    25.27078,
    54.70472
   ],
   [
    25.27108,
    54.7047
   ],
   [
    25.27248,
    54.70459
   ],
   [
    25.27254,
    54.70459
   ],
   [
    25.2732,
    54.70453
   ],
   [
    25.27335,
    54.70452
   ],
   [
    25.27351,
    54.70451
   ],
   [
    25.2736,
    54.7045
   ],
   [
    25.27385,
    54.70448
   ],
   [
    25.27482,
    54.7044
   ],
   [
    25.27546,
    54.70435
   ],
   [
    25.27594,
    54.70431
   ],
   [
    25.27611,
    54.7043
   ],
   [
    25.2763,
    54.70428
   ],
   [
    25.27665,
    54.70425
   ],
   [
    25.27726,
    54.7042
   ],
   [
    25.27769,
    54.70417
   ],
   [
    25.27791,
    54.70415
   ],
   [
    25.27885,
    54.70407
   ],
   [
    25.27973,
    54.70401
   ],
   [
    25.27993,
    54.70399
   ],
   [
    25.28102,
    54.7039
   ],
   [
    25.28109,
    54.7039
   ],
   [
    25.28131,
    54.70388
   ],
   [
    25.28163,
    54.70386
   ],
   [
    25.28178,
    54.70385
   ],
   [
    25.28221,
    54.70383
   ],
   [
    25.28342,
    54.70379
   ],
   [
    25.28355,
    54.70379
   ],
   [
    25.28383,
    54.70378
   ],
   [
    25.28409,
    54.70377
   ],
   [
    25.28424,
    54.70377
   ],
   [
    25.28462,
    54.70376
   ],
   [
    25.28482,
    54.70375
   ],
   [
    25.28489,
    54.70375
   ],
   [
    25.28513,
    54.70374
   ],
   [
    25.28532,
    54.70374
   ],
   [
    25.2862,
    54.70371
   ],
   [
    25.28651,
    54.70371
   ],
   [
    25.2868,
    54.7037
   ],
   [
    25.2871,
    54.70368
   ],
   [
    25.28734,
    54.70364
   ],
   [
    25.28765,
    54.70359
   ],
   [
    25.28788,
    54.70353
   ],
   [
    25.28814,
    54.70346
   ],
   [
    25.28828,
    54.70358
   ],
   [
    25.28836,
    54.70365
   ],
   [
    25.28868,
    54.70395
   ],
   [
    25.2888,
    54.70408
   ],
   [
    25.28889,
    54.70417
   ],
   [
    25.2891,
    54.70439
   ],
   [
    25.28929,
    54.70461
   ],
   [
    25.28943,
    54.7048
   ],
   [
    25.28949,
    54.7049
   ],
   [
    25.28954,
    54.70499
   ],
   [
    25.28962,
    54.70516
   ],
   [
    25.28966,
    54.70526
   ],
   [
    25.28979,
    54.70552
   ],
   [
    25.28989,
    54.70575
   ],
   [
    25.29002,
    54.70603
   ],
   [
    25.29018,
    54.70638
   ],
   [
    25.29026,
    54.70658
   ],
   [
    25.2904,
    54.7069
   ],
   [
    25.29065,
    54.70742
   ],
   [
    25.29067,
    54.70747
   ],
   [
    25.29071,
    54.70757
   ],
   [
    25.29074,
    54.70777
   ],
   [
    25.29083,
    54.70832
   ],
   [
    25.29084,
    54.70843
   ],
   [
    25.29088,
    54.70854
   ],
   [
    25.29101,
    54.70881
   ],
   [
    25.29123,
    54.70923
   ],
   [
    25.29134,
    54.70946
   ],
   [
    25.29154,
    54.70983
   ],
   [
    25.29165,
    54.71002
   ],
   [
    25.29194,
    54.71056
   ],
   [
    25.29206,
    54.71079
   ],
   [
    25.29231,
    54.71124
   ],
   [
    25.29243,
    54.71132
   ],
   [
    25.29248,
    54.71141
   ],
   [
    25.29258,
    54.71162
   ],
   [
    25.29266,
    54.71192
   ],
   [
    25.29268,
    54.71217
   ],
   [
    25.29265,
    54.71235
   ],
   [
    25.2929,
    54.7123
   ],
   [
    25.29356,
    54.71217
   ],
   [
    25.29424,
    54.71204
   ],
   [
    25.2947,
    54.71196
   ],
   [
    25.29583,
    54.71177
   ],
   [
    25.29639,
    54.71167
   ],
   [
    25.2966,
    54.71164
   ],
   [
    25.2973,
    54.71152
   ],
   [
    25.29782,
    54.71143
   ],
   [
    25.29796,
    54.71141
   ],
   [
    25.29833,
    54.71135
   ],
   [
    25.29863,
    54.71132
   ],
   [
    25.2989,
    54.71131
   ],
   [
    25.2994,
    54.7113
   ],
   [
    25.29995,
    54.7113
   ],
   [
    25.30056,
    54.7113
   ],
   [
    25.30069,
    54.7113
   ],
   [
    25.30076,
    54.7113
   ],
   [
    25.30103,
    54.7113
   ],
   [
    25.30214,
    54.71129
   ],
   [
    25.30289,
    54.71129
   ],
   [
    25.3031,
    54.71129
   ],
   [
    25.30456,
    54.71129
   ],
   [
    25.30478,
    54.71129
   ],
   [
    25.30485,
    54.71042
   ],
   [
    25.30484,
    54.71036
   ],
   [
    25.3047,
    54.70837
   ],
   [
    25.30466,
    54.70782
   ],
   [
    25.30461,
    54.70712
   ],
   [
    25.30458,
    54.70668
   ],
   [
    25.30456,
    54.70629
   ],
   [
    25.30452,
    54.70586
   ],
   [
    25.3045,
    54.7057
   ],
   [
    25.30479,
    54.70569
   ],
   [
    25.30533,
    54.70565
   ],
   [
    25.30699,
    54.70548
   ],
   [
    25.30829,
    54.70534
   ],
   [
    25.30854,
    54.70531
   ],
   [
    25.30872,
    54.70529
   ],
   [
    25.30901,
    54.70526
   ],
   [
    25.30998,
    54.70511
   ],
   [
    25.31038,
    54.70504
   ],
   [
    25.31062,
    54.705
   ],
   [
    25.31056,
    54.70486
   ],
   [
    25.31024,
    54.70407
   ],
   [
    25.31019,
    54.70396
   ],
   [
    25.31015,
    54.70385
   ],
   [
    25.31008,
    54.70367
   ],
   [
    25.31004,
    54.70355
   ],
   [
    25.30982,
    54.70294
   ],
   [
    25.3098,
    54.70289
   ],
   [
    25.30979,
    54.70284
   ],
   [
    25.30954,
    54.70212
   ],
   [
    25.30949,
    54.70199
   ],
   [
    25.30947,
    54.70193
   ],
   [
    25.3093,
    54.70141
   ],
   [
    25.30929,
    54.70139
   ],
   [
    25.30924,
    54.70119
   ],
   [
    25.3092,
    54.70104
   ],
   [
    25.3091,
    54.70068
   ],
   [
    25.30906,
    54.70049
   ],
   [
    25.30904,
    54.7004
   ],
   [
    25.30899,
    54.70015
   ],
   [
    25.30893,
    54.69986
   ],
   [
    25.30887,
    54.69942
   ],
   [
    25.30886,
    54.69937
   ],
   [
    25.30883,
    54.69909
   ],
   [
    25.30881,
    54.69889
   ],
   [
    25.30873,
    54.69816
   ],
   [
    25.30872,
    54.69808
   ],
   [
    25.30867,
    54.69766
   ],
   [
    25.30865,
    54.69746
   ],
   [
    25.30863,
    54.69731
   ],
   [
    25.30856,
    54.69688
   ],
   [
    25.30854,
    54.6968
   ],
   [
    25.3085,
    54.69667
   ],
   [
    25.30844,
    54.69655
   ],
   [
    25.3084,
    54.69648
   ],
   [
    25.30836,
    54.69643
   ],
   [
    25.30823,
    54.69627
   ],
   [
    25.30812,
    54.69615
   ],
   [
    25.30797,
    54.69602
   ],
   [
    25.30742,
    54.69564
   ],
   [
    25.3077,
    54.6957
   ],
   [
    25.30776,
    54.69572
   ],
   [
    25.30783,
    54.69574
   ],
   [
    25.30826,
    54.69591
   ],
   [
    25.30844,
    54.69597
   ],
   [
    25.30864,
    54.69604
   ],
   [
    25.30887,
    54.6961
   ],
   [
    25.30898,
    54.69613
   ],
   [
    25.30903,
    54.69614
   ],
   [
    25.30919,
    54.69618
   ],
   [
    25.31001,
    54.69635
   ],
   [
    25.31015,
    54.69638
   ],
   [
    25.3103,
    54.69643
   ],
   [
    25.31049,
    54.69649
   ],
   [
    25.31064,
    54.69655
   ],
   [
    25.31079,
    54.69661
   ],
   [
    25.31094,
    54.69669
   ],
   [
    25.31097,
    54.69667
   ],
   [
    25.311,
    54.69665
   ],
   [
    25.31105,
    54.69662
   ],
   [
    25.3112,
    54.69652
   ],
   [
    25.31138,
    54.6964
   ],
   [
    25.31141,
    54.69639
   ],
   [
    25.31147,
    54.69635
   ],
   [
    25.31149,
    54.69634
   ],
   [
    25.31166,
    54.69623
   ],
   [
    25.3118,
    54.69614
   ],
   [
    25.31186,
    54.69611
   ],
   [
    25.31189,
    54.69609
   ],
   [
    25.31208,
    54.69597
   ],
   [
    25.31225,
    54.69589
   ],
   [
    25.31231,
    54.69586
   ],
   [
    25.31235,
    54.69585
   ],
   [
    25.31245,
    54.69581
   ],
   [
    25.31251,
    54.69578
   ],
   [
    25.31266,
    54.69573
   ],
   [
    25.31288,
    54.69567
   ],
   [
    25.31302,
    54.69563
   ],
   [
    25.31309,
    54.69561
   ],
   [
    25.31331,
    54.69554
   ],
   [
    25.31343,
    54.69551
   ],
   [
    25.31348,
    54.69549
   ],
   [
    25.31385,
    54.69538
   ],
   [
    25.31388,
    54.69537
   ],
   [
    25.31399,
    54.69533
   ],
   [
    25.31417,
    54.69526
   ],
   [
    25.31437,
    54.69519
   ],
   [
    25.31456,
    54.69512
   ],
   [
    25.31471,
    54.69507
   ],
   [
    25.31478,
    54.69504
   ],
   [
    25.31497,
    54.69497
   ],
   [
    25.31514,
    54.69489
   ],
   [
    25.31524,
    54.69483
   ],
   [
    25.31537,
    54.69477
   ],
   [
    25.31547,
    54.69473
   ],
   [
    25.31553,
    54.69471
   ],
   [
    25.31558,
    54.6947
   ],
   [
    25.31566,
    54.6947
   ],
   [
    25.31588,
    54.69472
   ],
   [
    25.31592,
    54.69472
   ],
   [
    25.31632,
    54.69475
   ],
   [
    25.31648,
    54.69477
   ],
   [
    25.3167,
    54.69478
   ],
   [
    25.31684,
    54.6948
   ],
   [
    25.317,
    54.69482
   ],
   [
    25.3172,
    54.69488
   ],
   [
    25.31731,
    54.69492
   ],
   [
    25.31738,
    54.69494
   ],
   [
    25.31742,
    54.69496
   ],
   [
    25.31749,
    54.69499
   ],
   [
    25.31755,
    54.69503
   ],
   [
    25.31758,
    54.69505
   ],
   [
    25.31765,
    54.69512
   ],
   [
    25.31775,
    54.69522
   ],
   [
    25.31789,
    54.69535
   ],
   [
    25.31792,
    54.69539
   ],
   [
    25.3181,
    54.69556
   ],
   [
    25.31816,
    54.69561
   ],
   [
    25.31827,
    54.69572
   ],
   [
    25.31829,
    54.69574
   ],
   [
    25.3184,
    54.69582
   ],
   [
    25.31831,
    54.69587
   ],
   [
    25.31823,
    54.69592
   ],
   [
    25.31806,
    54.69604
   ],
   [
    25.31803,
    54.69607
   ],
   [
    25.31793,
    54.69616
   ],
   [
    25.31783,
    54.69624
   ],
   [
    25.3178,
    54.69627
   ],
   [
    25.31774,
    54.69633
   ],
   [
    25.31768,
    54.69637
   ],
   [
    25.3176,
    54.69642
   ],
   [
    25.31751,
    54.69646
   ],
   [
    25.31745,
    54.69648
   ],
   [
    25.31733,
    54.69652
   ],
   [
    25.31708,
    54.69658
   ],
   [
    25.317,
    54.6966
   ],
   [
    25.3168,
    54.69663
   ],
   [
    25.31665,
    54.69666
   ],
   [
    25.31653,
    54.69668
   ],
   [
    25.31634,
    54.69672
   ],
   [
    25.31626,
    54.69674
   ],
   [
    25.31604,
    54.69681
   ],
   [
    25.31577,
    54.69689
   ],
   [
    25.31571,
    54.6969
   ],
   [
    25.31559,
    54.69694
   ],
   [
    25.31543,
    54.697
   ],
   [
    25.31536,
    54.69702
   ],
   [
    25.31517,
    54.6971
   ],
   [
    25.31494,
    54.69719
   ],
   [
    25.3148,
    54.69724
   ],
   [
    25.31469,
    54.69729
   ],
   [
    25.31458,
    54.69734
   ],
   [
    25.31446,
    54.6974
   ],
   [
    25.31439,
    54.69745
   ],
   [
    25.31432,
    54.6975
   ],
   [
    25.31425,
    54.69757
   ],
   [
    25.31418,
    54.69765
   ],
   [
    25.31413,
    54.69769
   ],
   [
    25.31406,
    54.69775
   ],
   [
    25.31401,
    54.69778
   ],
   [
    25.31398,
    54.69781
   ],
   [
    25.31394,
    54.69783
   ],
   [
    25.31389,
    54.69786
   ],
   [
    25.31385,
    54.69789
   ],
   [
    25.31378,
    54.69793
   ],
   [
    25.31373,
    54.69796
   ],
   [
    25.31366,
    54.69799
   ],
   [
    25.31358,
    54.69801
   ],
   [
    25.31344,
    54.69806
   ],
   [
    25.31334,
    54.69809
   ],
   [
    25.31323,
    54.69812
   ],
   [
    25.31317,
    54.69814
   ],
   [
    25.31311,
    54.69814
   ],
   [
    25.31305,
    54.69814
   ],
   [
    25.313,
    54.69812
   ],
   [
    25.31295,
    54.69808
   ],
   [
    25.31273,
    54.69792
   ],
   [
    25.31265,
    54.69786
   ],
   [
    25.31248,
    54.69774
   ],
   [
    25.31227,
    54.69759
   ],
   [
    25.31219,
    54.69754
   ],
   [
    25.31135,
    54.69695
   ],
   [
    25.31121,
    54.69686
   ],
   [
    25.31094,
    54.69669
   ],
   [
    25.31079,
    54.69661
   ],
   [
    25.31064,
    54.69655
   ],
   [
    25.31049,
    54.69649
   ],
   [
    25.3103,
    54.69643
   ],
   [
    25.31015,
    54.69638
   ],
   [
    25.31001,
    54.69635
   ],
   [
    25.30919,
    54.69618
   ],
   [
    25.30903,
    54.69614
   ],
   [
    25.30898,
    54.69613
   ],
   [
    25.30887,
    54.6961
   ],
   [
    25.30864,
    54.69604
   ],
   [
    25.30844,
    54.69597
   ],
   [
    25.30826,
    54.69591
   ],
   [
    25.30808,
    54.69597
   ],
   [
    25.30797,
    54.69602
   ],
   [
    25.30742,
    54.69564
   ],
   [
    25.30724,
    54.69552
   ],
   [
    25.30709,
    54.69543
   ],
   [
    25.30637,
    54.69494
   ],
   [
    25.30619,
    54.6948
   ],
   [
    25.30609,
    54.69474
   ],
   [
    25.30583,
    54.69454
   ],
   [
    25.30547,
    54.69427
   ],
   [
    25.30528,
    54.69414
   ],
   [
    25.3052,
    54.69409
   ],
   [
    25.30508,
    54.69402
   ],
   [
    25.30481,
    54.69382
   ],
   [
    25.30474,
    54.69378
   ],
   [
    25.30467,
    54.69373
   ],
   [
    25.3046,
    54.69371
   ],
   [
    25.30454,
    54.69369
   ],
   [
    25.30449,
    54.6937
   ],
   [
    25.30445,
    54.69371
   ],
   [
    25.30438,
    54.69372
   ],
   [
    25.30431,
    54.69373
   ],
   [
    25.3042,
    54.69372
   ],
   [
    25.3041,
    54.69371
   ],
   [
    25.30399,
    54.69368
   ],
   [
    25.30391,
    54.69364
   ],
   [
    25.30383,
    54.69359
   ],
   [
    25.3038,
    54.69356
   ],
   [
    25.30376,
    54.69353
   ],
   [
    25.30374,
    54.69348
   ],
   [
    25.30372,
    54.69342
   ],
   [
    25.30373,
    54.69336
   ],
   [
    25.30375,
    54.69329
   ],
   [
    25.3038,
    54.69324
   ],
   [
    25.30386,
    54.69318
   ],
   [
    25.30394,
    54.69314
   ],
   [
    25.30403,
    54.6931
   ],
   [
    25.30413,
    54.69308
   ],
   [
    25.30423,
    54.69307
   ],
   [
    25.30433,
    54.69307
   ],
   [
    25.30457,
    54.69303
   ],
   [
    25.30463,
    54.69301
   ],
   [
    25.30469,
    54.69298
   ],
   [
    25.30487,
    54.69282
   ],
   [
    25.30497,
    54.69271
   ],
   [
    25.305,
    54.69264
   ],
   [
    25.30507,
    54.69248
   ],
   [
    25.3051,
    54.69236
   ],
   [
    25.30513,
    54.69224
   ],
   [
    25.30514,
    54.69212
   ],
   [
    25.30514,
    54.69201
   ],
   [
    25.30513,
    54.69189
   ],
   [
    25.30511,
    54.69182
   ],
   [
    25.30507,
    54.69167
   ],
   [
    25.30498,
    54.69148
   ],
   [
    25.30477,
    54.69114
   ],
   [
    25.30464,
    54.69092
   ],
   [
    25.30458,
    54.6908
   ],
   [
    25.30454,
    54.69073
   ],
   [
    25.30446,
    54.69055
   ],
   [
    25.30439,
    54.69035
   ],
   [
    25.30436,
    54.69024
   ],
   [
    25.30433,
    54.69011
   ],
   [
    25.3043,
    54.68993
   ],
   [
    25.30429,
    54.68982
   ],
   [
    25.30427,
    54.68967
   ],
   [
    25.30428,
    54.68942
   ],
   [
    25.3043,
    54.68918
   ],
   [
    25.30435,
    54.68898
   ],
   [
    25.30438,
    54.68891
   ],
   [
    25.3044,
    54.68884
   ],
   [
    25.30451,
    54.68865
   ],
   [
    25.30462,
    54.68849
   ],
   [
    25.30481,
    54.68827
   ],
   [
    25.30507,
    54.68804
   ],
   [
    25.30534,
    54.68777
   ],
   [
    25.30547,
    54.68764
   ],
   [
    25.3056,
    54.68752
   ],
   [
    25.30618,
    54.68693
   ],
   [
    25.30655,
    54.68656
   ],
   [
    25.30677,
    54.68634
   ],
   [
    25.30707,
    54.68609
   ],
   [
    25.30738,
    54.68587
   ],
   [
    25.30773,
    54.68564
   ],
   [
    25.30814,
    54.68539
   ],
   [
    25.30858,
    54.68516
   ],
   [
    25.30879,
    54.68506
   ],
   [
    25.30921,
    54.68486
   ],
   [
    25.30967,
    54.68465
   ],
   [
    25.30996,
    54.68451
   ],
   [
    25.31068,
    54.68419
   ],
   [
    25.31107,
    54.68402
   ],
   [
    25.31123,
    54.68388
   ],
   [
    25.31166,
    54.68363
   ],
   [
    25.31196,
    54.68343
   ],
   [
    25.31222,
    54.68324
   ],
   [
    25.31241,
    54.68308
   ],
   [
    25.31252,
    54.68297
   ],
   [
    25.31301,
    54.68249
   ],
   [
    25.31315,
    54.68221
   ],
   [
    25.31317,
    54.68216
   ],
   [
    25.3132,
    54.68208
   ],
   [
    25.31323,
    54.682
   ],
   [
    25.31327,
    54.68179
   ],
   [
    25.31328,
    54.68167
   ],
   [
    25.31319,
    54.68124
   ],
   [
    25.31312,
    54.68091
   ],
   [
    25.31308,
    54.68077
   ],
   [
    25.31303,
    54.68064
   ],
   [
    25.31289,
    54.68039
   ],
   [
    25.31264,
    54.68001
   ],
   [
    25.31245,
    54.67984
   ],
   [
    25.31169,
    54.67919
   ],
   [
    25.31157,
    54.67909
   ],
   [
    25.31135,
    54.67889
   ],
   [
    25.3111,
    54.67869
   ],
   [
    25.31088,
    54.6785
   ],
   [
    25.31037,
    54.67808
   ],
   [
    25.30974,
    54.6778
   ],
   [
    25.3095,
    54.67772
   ],
   [
    25.30925,
    54.67766
   ],
   [
    25.30863,
    54.67758
   ],
   [
    25.30832,
    54.67754
   ],
   [
    25.30804,
    54.67747
   ],
   [
    25.30771,
    54.67736
   ],
   [
    25.30752,
    54.67727
   ],
   [
    25.30737,
    54.67716
   ],
   [
    25.30726,
    54.67707
   ],
   [
    25.30716,
    54.67697
   ],
   [
    25.3071,
    54.6769
   ],
   [
    25.30705,
    54.67684
   ],
   [
    25.30701,
    54.67676
   ],
   [
    25.30696,
    54.67668
   ],
   [
    25.30591,
    54.67477
   ],
   [
    25.30563,
    54.67427
   ],
   [
    25.30524,
    54.67356
   ],
   [
    25.30509,
    54.67329
   ],
   [
    25.30496,
    54.67303
   ],
   [
    25.30488,
    54.6728
   ],
   [
    25.3048,
    54.67253
   ],
   [
    25.30475,
    54.6723
   ],
   [
    25.30471,
    54.67203
   ],
   [
    25.3047,
    54.67195
   ],
   [
    25.30469,
    54.67184
   ],
   [
    25.30468,
    54.67177
   ],
   [
    25.30468,
    54.67156
   ],
   [
    25.3047,
    54.67137
   ],
   [
    25.30472,
    54.67124
   ],
   [
    25.30474,
    54.6712
   ],
   [
    25.30477,
    54.67115
   ],
   [
    25.3048,
    54.67104
   ],
   [
    25.30487,
    54.67075
   ],
   [
    25.30498,
    54.67045
   ],
   [
    25.30514,
    54.67
   ],
   [
    25.30523,
    54.66975
   ],
   [
    25.30531,
    54.66949
   ],
   [
    25.30535,
    54.66936
   ],
   [
    25.30537,
    54.66927
   ],
   [
    25.30542,
    54.66913
   ],
   [
    25.30545,
    54.66904
   ],
   [
    25.30546,
    54.66898
   ],
   [
    25.30542,
    54.66863
   ],
   [
    25.30539,
    54.66843
   ],
   [
    25.30523,
    54.66735
   ],
   [
    25.30522,
    54.66724
   ],
   [
    25.30522,
    54.66715
   ],
   [
    25.30524,
    54.66705
   ],
   [
    25.3053,
    54.66682
   ],
   [
    25.30534,
    54.66664
   ],
   [
    25.30537,
    54.66652
   ],
   [
    25.3054,
    54.66638
   ],
   [
    25.30544,
    54.66621
   ],
   [
    25.30545,
    54.66602
   ],
   [
    25.30543,
    54.66586
   ],
   [
    25.30539,
    54.66564
   ],
   [
    25.3053,
    54.66543
   ],
   [
    25.30515,
    54.66521
   ],
   [
    25.30495,
    54.66501
   ],
   [
    25.30512,
    54.66496
   ],
   [
    25.3052,
    54.66491
   ],
   [
    25.30516,
    54.66478
   ],
   [
    25.30528,
    54.66467
   ],
   [
    25.30554,
    54.66451
   ],
   [
    25.30589,
    54.66433
   ],
   [
    25.3061,
    54.66424
   ],
   [
    25.30619,
    54.66419
   ],
   [
    25.30591,
    54.66407
   ],
   [
    25.30619,
    54.66419
   ],
   [
    25.3061,
    54.66424
   ],
   [
    25.30589,
    54.66433
   ],
   [
    25.30554,
    54.66451
   ],
   [
    25.30528,
    54.66467
   ],
   [
    25.30516,
    54.66478
   ],
   [
    25.3052,
    54.66491
   ],
   [
    25.30512,
    54.66496
   ],
   [
    25.30495,
    54.66501
   ],
   [
    25.3048,
    54.66487
   ],
   [
    25.30475,
    54.66482
   ],
   [
    25.30439,
    54.66452
   ],
   [
    25.30429,
    54.66444
   ],
   [
    25.30332,
    54.66363
   ],
   [
    25.30262,
    54.66307
   ],
   [
    25.30239,
    54.66288
   ],
   [
    25.30216,
    54.6627
   ],
   [
    25.30162,
    54.66229
   ],
   [
    25.30146,
    54.66216
   ],
   [
    25.30168,
    54.66203
   ],
   [
    25.30173,
    54.662
   ],
   [
    25.30192,
    54.66186
   ],
   [
    25.30205,
    54.66177
   ],
   [
    25.30221,
    54.66165
   ],
   [
    25.30229,
    54.66159
   ],
   [
    25.30249,
    54.66142
   ],
   [
    25.30259,
    54.66134
   ],
   [
    25.30277,
    54.66118
   ],
   [
    25.30303,
    54.66094
   ],
   [
    25.30304,
    54.66093
   ],
   [
    25.30317,
    54.66079
   ],
   [
    25.30325,
    54.66069
   ],
   [
    25.30332,
    54.66058
   ],
   [
    25.30334,
    54.66054
   ],
   [
    25.30335,
    54.66052
   ],
   [
    25.3034,
    54.66039
   ],
   [
    25.30342,
    54.66031
   ],
   [
    25.30344,
    54.66023
   ],
   [
    25.30347,
    54.66005
   ],
   [
    25.30348,
    54.66001
   ],
   [
    25.30348,
    54.65985
   ],
   [
    25.30346,
    54.65905
   ],
   [
    25.30345,
    54.65869
   ],
   [
    25.30345,
    54.65831
   ],
   [
    25.30342,
    54.65788
   ],
   [
    25.30342,
    54.65777
   ],
   [
    25.30339,
    54.65749
   ],
   [
    25.30338,
    54.65745
   ],
   [
    25.30332,
    54.65716
   ],
   [
    25.30316,
    54.65656
   ],
   [
    25.30304,
    54.65639
   ],
   [
    25.30292,
    54.65589
   ],
   [
    25.30289,
    54.65572
   ],
   [
    25.30288,
    54.65559
   ],
   [
    25.30287,
    54.65546
   ],
   [
    25.30287,
    54.65539
   ],
   [
    25.30287,
    54.65533
   ],
   [
    25.30286,
    54.65508
   ],
   [
    25.30285,
    54.65496
   ],
   [
    25.30283,
    54.65472
   ],
   [
    25.30282,
    54.65461
   ],
   [
    25.30281,
    54.65449
   ],
   [
    25.30279,
    54.65418
   ],
   [
    25.30279,
    54.65401
   ],
   [
    25.30278,
    54.65393
   ],
   [
    25.30276,
    54.65373
   ],
   [
    25.30274,
    54.65346
   ],
   [
    25.30272,
    54.65328
   ],
   [
    25.30269,
    54.65288
   ],
   [
    25.30267,
    54.65222
   ],
   [
    25.30269,
    54.65176
   ],
   [
    25.30274,
    54.65159
   ],
   [
    25.30276,
    54.65129
   ],
   [
    25.30276,
    54.65113
   ],
   [
    25.30276,
    54.65085
   ],
   [
    25.30277,
    54.6507
   ],
   [
    25.30277,
    54.65037
   ],
   [
    25.30277,
    54.65012
   ],
   [
    25.30277,
    54.64998
   ],
   [
    25.30276,
    54.64965
   ],
   [
    25.30276,
    54.64859
   ],
   [
    25.30276,
    54.64843
   ],
   [
    25.30277,
    54.64768
   ],
   [
    25.30277,
    54.64763
   ],
   [
    25.30276,
    54.64733
   ],
   [
    25.30277,
    54.64659
   ],
   [
    25.30277,
    54.64626
   ],
   [
    25.30277,
    54.64578
   ],
   [
    25.30277,
    54.64576
   ],
   [
    25.30277,
    54.64572
   ],
   [
    25.30278,
    54.64467
   ],
   [
    25.30278,
    54.64462
   ],
   [
    25.30278,
    54.64455
   ],
   [
    25.30278,
    54.64438
   ],
   [
    25.30278,
    54.64394
   ],
   [
    25.30279,
    54.64374
   ],
   [
    25.30287,
    54.63973
   ],
   [
    25.30289,
    54.63867
   ],
   [
    25.30291,
    54.63803
   ],
   [
    25.30293,
    54.63773
   ],
   [
    25.30297,
    54.63744
   ],
   [
    25.30302,
    54.63716
   ],
   [
    25.30331,
    54.63583
   ],
   [
    25.30348,
    54.63585
   ],
   [
    25.30359,
    54.63587
   ],
   [
    25.30414,
    54.63603
   ],
   [
    25.30482,
    54.6362
   ],
   [
    25.30539,
    54.63636
   ],
   [
    25.30629,
    54.6366
   ],
   [
    25.30716,
    54.63682
   ],
   [
    25.30726,
    54.6367
   ],
   [
    25.30729,
    54.63665
   ],
   [
    25.30733,
    54.63659
   ],
   [
    25.3074,
    54.63656
   ],
   [
    25.30744,
    54.63652
   ],
   [
    25.30769,
    54.63626
   ],
   [
    25.30804,
    54.63641
   ],
   [
    25.30813,
    54.63644
   ],
   [
    25.3091,
    54.63557
   ],
   [
    25.30868,
    54.63542
   ],
   [
    25.30815,
    54.63589
   ],
   [
    25.30868,
    54.63542
   ],
   [
    25.3091,
    54.63557
   ],
   [
    25.30813,
    54.63644
   ],
   [
    25.30804,
    54.63641
   ],
   [
    25.30769,
    54.63626
   ],
   [
    25.30744,
    54.63652
   ],
   [
    25.3074,
    54.63656
   ],
   [
    25.30733,
    54.63659
   ],
   [
    25.30729,
    54.63665
   ],
   [
    25.30726,
    54.6367
   ],
   [
    25.30716,
    54.63682
   ],
   [
    25.30629,
    54.6366
   ],
   [
    25.30539,
    54.63636
   ],
   [
    25.30482,
    54.6362
   ],
   [
    25.30414,
    54.63603
   ],
   [
    25.30359,
    54.63587
   ],
   [
    25.30348,
    54.63585
   ],
   [
    25.30331,
    54.63583
   ],
   [
    25.30302,
    54.63716
   ],
   [
    25.30297,
    54.63744
   ],
   [
    25.30293,
    54.63773
   ],
   [
    25.30291,
    54.63803
   ],
   [
    25.30289,
    54.63867
   ],
   [
    25.30287,
    54.63973
   ],
   [
    25.30279,
    54.64374
   ],
   [
    25.30278,
    54.64394
   ],
   [
    25.30278,
    54.64438
   ],
   [
    25.30278,
    54.64455
   ],
   [
    25.30278,
    54.64462
   ],
   [
    25.30278,
    54.64467
   ],
   [
    25.30277,
    54.64572
   ],
   [
    25.30277,
    54.64576
   ],
   [
    25.30277,
    54.64578
   ],
   [
    25.30277,
    54.64626
   ],
   [
    25.30277,
    54.64659
   ],
   [
    25.30276,
    54.64733
   ],
   [
    25.30277,
    54.64763
   ],
   [
    25.30277,
    54.64768
   ],
   [
    25.30276,
    54.64843
   ],
   [
    25.30276,
    54.64859
   ],
   [
    25.30276,
    54.64965
   ],
   [
    25.30277,
    54.64998
   ],
   [
    25.30277,
    54.65012
   ],
   [
    25.30277,
    54.65037
   ],
   [
    25.30277,
    54.6507
   ],
   [
    25.30276,
    54.65085
   ],
   [
    25.30276,
    54.65113
   ],
   [
    25.30276,
    54.65129
   ],
   [
    25.30274,
    54.65159
   ],
   [
    25.3028,
    54.65176
   ],
   [
    25.30283,
    54.65202
   ],
   [
    25.30285,
    54.65222
   ],
   [
    25.30288,
    54.65286
   ],
   [
    25.30292,
    54.65326
   ],
   [
    25.30296,
    54.65371
   ],
   [
    25.30298,
    54.65393
   ],
   [
    25.30299,
    54.654
   ],
   [
    25.303,
    54.65414
   ],
   [
    25.30301,
    54.65428
   ],
   [
    25.30301,
    54.65445
   ],
   [
    25.30281,
    54.65449
   ],
   [
    25.3022,
    54.65459
   ],
   [
    25.30048,
    54.65488
   ],
   [
    25.29937,
    54.65506
   ],
   [
    25.2988,
    54.65516
   ],
   [
    25.2985,
    54.65521
   ],
   [
    25.29713,
    54.65543
   ],
   [
    25.29627,
    54.65557
   ],
   [
    25.29566,
    54.65566
   ],
   [
    25.29483,
    54.65579
   ],
   [
    25.29395,
    54.65591
   ],
   [
    25.29332,
    54.65596
   ],
   [
    25.29317,
    54.65599
   ],
   [
    25.29291,
    54.65603
   ],
   [
    25.29252,
    54.65608
   ],
   [
    25.29223,
    54.65611
   ],
   [
    25.29189,
    54.65615
   ],
   [
    25.29138,
    54.65619
   ],
   [
    25.29104,
    54.6562
   ],
   [
    25.29057,
    54.65622
   ],
   [
    25.2899,
    54.65623
   ],
   [
    25.28935,
    54.65622
   ],
   [
    25.28871,
    54.65619
   ],
   [
    25.28814,
    54.65616
   ],
   [
    25.2876,
    54.6561
   ],
   [
    25.28712,
    54.65604
   ],
   [
    25.28642,
    54.65593
   ],
   [
    25.28531,
    54.65572
   ],
   [
    25.28452,
    54.65555
   ],
   [
    25.2839,
    54.65542
   ],
   [
    25.2832,
    54.65527
   ],
   [
    25.28273,
    54.65518
   ],
   [
    25.28214,
    54.65508
   ],
   [
    25.2817,
    54.65503
   ],
   [
    25.28097,
    54.65495
   ],
   [
    25.28054,
    54.65493
   ],
   [
    25.2801,
    54.65492
   ],
   [
    25.27934,
    54.65494
   ],
   [
    25.27894,
    54.65496
   ],
   [
    25.27858,
    54.65498
   ],
   [
    25.27811,
    54.65502
   ],
   [
    25.27783,
    54.65505
   ],
   [
    25.27748,
    54.65509
   ],
   [
    25.27711,
    54.65515
   ],
   [
    25.27682,
    54.65521
   ],
   [
    25.27603,
    54.65538
   ],
   [
    25.27521,
    54.6556
   ],
   [
    25.27375,
    54.65605
   ],
   [
    25.27217,
    54.65653
   ],
   [
    25.27141,
    54.65671
   ],
   [
    25.26897,
    54.65719
   ],
   [
    25.26767,
    54.65746
   ],
   [
    25.26717,
    54.65759
   ],
   [
    25.26669,
    54.65774
   ],
   [
    25.26615,
    54.65796
   ],
   [
    25.26581,
    54.65812
   ],
   [
    25.26552,
    54.6583
   ],
   [
    25.2651,
    54.65857
   ],
   [
    25.26472,
    54.65886
   ],
   [
    25.26464,
    54.65892
   ],
   [
    25.26413,
    54.65933
   ],
   [
    25.26371,
    54.65962
   ],
   [
    25.26338,
    54.65982
   ],
   [
    25.26294,
    54.66007
   ],
   [
    25.2625,
    54.66027
   ],
   [
    25.26212,
    54.66043
   ],
   [
    25.25999,
    54.66123
   ],
   [
    25.25884,
    54.66161
   ],
   [
    25.25796,
    54.66194
   ],
   [
    25.25735,
    54.66221
   ],
   [
    25.25688,
    54.66248
   ],
   [
    25.2565,
    54.66273
   ],
   [
    25.25627,
    54.6629
   ],
   [
    25.256,
    54.66313
   ],
   [
    25.25578,
    54.66334
   ],
   [
    25.25555,
    54.6636
   ],
   [
    25.25539,
    54.6638
   ],
   [
    25.255,
    54.66436
   ],
   [
    25.25477,
    54.66462
   ],
   [
    25.25448,
    54.6649
   ],
   [
    25.25423,
    54.66509
   ],
   [
    25.254,
    54.66526
   ],
   [
    25.25363,
    54.66549
   ],
   [
    25.25331,
    54.66565
   ],
   [
    25.25325,
    54.66577
   ],
   [
    25.25323,
    54.66584
   ],
   [
    25.25324,
    54.6659
   ],
   [
    25.25327,
    54.66595
   ],
   [
    25.25334,
    54.666
   ],
   [
    25.25352,
    54.66608
   ],
   [
    25.25431,
    54.66623
   ],
   [
    25.25454,
    54.66627
   ],
   [
    25.25442,
    54.66638
   ],
   [
    25.25378,
    54.66701
   ],
   [
    25.25374,
    54.66705
   ],
   [
    25.25368,
    54.6671
   ],
   [
    25.25347,
    54.66699
   ],
   [
    25.2533,
    54.66692
   ],
   [
    25.25305,
    54.66681
   ],
   [
    25.25285,
    54.66674
   ],
   [
    25.25265,
    54.66668
   ],
   [
    25.2525,
    54.66663
   ],
   [
    25.25233,
    54.66659
   ],
   [
    25.2521,
    54.66654
   ],
   [
    25.25189,
    54.6665
   ],
   [
    25.25037,
    54.6662
   ],
   [
    25.24841,
    54.66581
   ],
   [
    25.24699,
    54.66553
   ],
   [
    25.24661,
    54.66545
   ],
   [
    25.24665,
    54.66538
   ],
   [
    25.24668,
    54.66534
   ],
   [
    25.24674,
    54.66531
   ],
   [
    25.24681,
    54.66529
   ],
   [
    25.24701,
    54.66523
   ],
   [
    25.24715,
    54.66519
   ],
   [
    25.24703,
    54.66504
   ],
   [
    25.24706,
    54.66492
   ],
   [
    25.24701,
    54.66485
   ],
   [
    25.24699,
    54.66478
   ],
   [
    25.24701,
    54.66463
   ],
   [
    25.24701,
    54.66451
   ],
   [
    25.24691,
    54.66427
   ],
   [
    25.24682,
    54.66406
   ],
   [
    25.2468,
    54.66401
   ],
   [
    25.24636,
    54.66401
   ],
   [
    25.24629,
    54.66397
   ],
   [
    25.24622,
    54.66392
   ],
   [
    25.24598,
    54.66395
   ],
   [
    25.24622,
    54.66392
   ],
   [
    25.24629,
    54.66397
   ],
   [
    25.24636,
    54.66401
   ],
   [
    25.2468,
    54.66401
   ],
   [
    25.24682,
    54.66406
   ],
   [
    25.24691,
    54.66427
   ],
   [
    25.24701,
    54.66451
   ],
   [
    25.24701,
    54.66463
   ],
   [
    25.24711,
    54.66476
   ],
   [
    25.24711,
    54.66484
   ],
   [
    25.24706,
    54.66492
   ],
   [
    25.24703,
    54.66504
   ],
   [
    25.24715,
    54.66519
   ],
   [
    25.24701,
    54.66523
   ],
   [
    25.24681,
    54.66529
   ],
   [
    25.24674,
    54.66531
   ],
   [
    25.24668,
    54.66534
   ],
   [
    25.24665,
    54.66538
   ],
   [
    25.24661,
    54.66545
   ],
   [
    25.24613,
    54.66536
   ],
   [
    25.2455,
    54.66522
   ],
   [
    25.24519,
    54.66514
   ],
   [
    25.24496,
    54.66508
   ],
   [
    25.24486,
    54.66505
   ],
   [
    25.24466,
    54.66498
   ],
   [
    25.24445,
    54.6649
   ],
   [
    25.24425,
    54.66481
   ],
   [
    25.24408,
    54.66472
   ],
   [
    25.24393,
    54.66462
   ],
   [
    25.24379,
    54.6645
   ],
   [
    25.24366,
    54.66438
   ],
   [
    25.24331,
    54.6639
   ],
   [
    25.24325,
    54.66381
   ],
   [
    25.24317,
    54.66371
   ],
   [
    25.24315,
    54.66368
   ],
   [
    25.24308,
    54.6636
   ],
   [
    25.24299,
    54.66353
   ],
   [
    25.24283,
    54.66345
   ],
   [
    25.24276,
    54.66342
   ],
   [
    25.24261,
    54.66339
   ],
   [
    25.24252,
    54.66338
   ],
   [
    25.24239,
    54.66337
   ],
   [
    25.24226,
    54.66337
   ],
   [
    25.24181,
    54.6634
   ],
   [
    25.24123,
    54.66342
   ],
   [
    25.24091,
    54.66344
   ],
   [
    25.24035,
    54.66346
   ],
   [
    25.23954,
    54.6635
   ],
   [
    25.23911,
    54.66352
   ],
   [
    25.23903,
    54.66352
   ],
   [
    25.23791,
    54.66357
   ],
   [
    25.23719,
    54.66361
   ],
   [
    25.23656,
    54.66364
   ],
   [
    25.2364,
    54.66365
   ],
   [
    25.23638,
    54.66365
   ],
   [
    25.23624,
    54.66366
   ],
   [
    25.23601,
    54.66368
   ],
   [
    25.23609,
    54.66382
   ],
   [
    25.23655,
    54.66452
   ],
   [
    25.2368,
    54.66493
   ],
   [
    25.237,
    54.66525
   ],
   [
    25.2371,
    54.66543
   ],
   [
    25.23718,
    54.66565
   ],
   [
    25.23724,
    54.66587
   ],
   [
    25.23733,
    54.66624
   ],
   [
    25.2375,
    54.66699
   ],
   [
    25.23764,
    54.66743
   ],
   [
    25.23773,
    54.66765
   ],
   [
    25.23782,
    54.66782
   ],
   [
    25.2379,
    54.66799
   ],
   [
    25.23795,
    54.6681
   ],
   [
    25.23801,
    54.6682
   ],
   [
    25.23805,
    54.66836
   ],
   [
    25.23808,
    54.66851
   ],
   [
    25.23809,
    54.66864
   ],
   [
    25.2381,
    54.66875
   ],
   [
    25.23808,
    54.66887
   ],
   [
    25.23806,
    54.669
   ],
   [
    25.238,
    54.66931
   ],
   [
    25.2379,
    54.66988
   ],
   [
    25.23789,
    54.67009
   ],
   [
    25.2379,
    54.67029
   ],
   [
    25.23794,
    54.67044
   ],
   [
    25.23797,
    54.67057
   ],
   [
    25.23801,
    54.6707
   ],
   [
    25.23807,
    54.67084
   ],
   [
    25.23821,
    54.6711
   ],
   [
    25.23842,
    54.67139
   ],
   [
    25.2387,
    54.67177
   ],
   [
    25.23895,
    54.67206
   ],
   [
    25.23916,
    54.67227
   ],
   [
    25.23937,
    54.67248
   ],
   [
    25.23968,
    54.67273
   ],
   [
    25.24007,
    54.67302
   ],
   [
    25.24032,
    54.67318
   ],
   [
    25.24059,
    54.67336
   ],
   [
    25.24077,
    54.67348
   ],
   [
    25.24183,
    54.67405
   ],
   [
    25.24224,
    54.67429
   ],
   [
    25.244,
    54.67526
   ],
   [
    25.24444,
    54.67551
   ],
   [
    25.24495,
    54.67584
   ],
   [
    25.24612,
    54.6768
   ],
   [
    25.24649,
    54.6772
   ],
   [
    25.24673,
    54.67753
   ],
   [
    25.24694,
    54.67786
   ],
   [
    25.24721,
    54.67832
   ],
   [
    25.24738,
    54.67875
   ],
   [
    25.24748,
    54.67901
   ],
   [
    25.24789,
    54.68027
   ],
   [
    25.24808,
    54.68081
   ],
   [
    25.2483,
    54.6813
   ],
   [
    25.24843,
    54.68151
   ],
   [
    25.24865,
    54.68188
   ],
   [
    25.24886,
    54.68217
   ],
   [
    25.24891,
    54.68223
   ],
   [
    25.24902,
    54.68236
   ],
   [
    25.2491,
    54.68245
   ],
   [
    25.24913,
    54.68248
   ],
   [
    25.24922,
    54.68256
   ],
   [
    25.24935,
    54.68267
   ],
   [
    25.24955,
    54.6828
   ],
   [
    25.24969,
    54.68288
   ],
   [
    25.24983,
    54.68296
   ],
   [
    25.25005,
    54.68307
   ],
   [
    25.25027,
    54.68316
   ],
   [
    25.25051,
    54.68322
   ],
   [
    25.25072,
    54.68327
   ],
   [
    25.25094,
    54.68331
   ],
   [
    25.25117,
    54.68334
   ],
   [
    25.25168,
    54.68339
   ],
   [
    25.25262,
    54.68346
   ],
   [
    25.25352,
    54.68353
   ],
   [
    25.2544,
    54.68359
   ],
   [
    25.255,
    54.68364
   ],
   [
    25.25539,
    54.6837
   ],
   [
    25.2556,
    54.68375
   ],
   [
    25.25583,
    54.6838
   ],
   [
    25.2562,
    54.68392
   ],
   [
    25.25647,
    54.68402
   ],
   [
    25.25663,
    54.68409
   ],
   [
    25.2568,
    54.68418
   ],
   [
    25.25698,
    54.68428
   ],
   [
    25.25721,
    54.68443
   ],
   [
    25.25811,
    54.68504
   ],
   [
    25.25826,
    54.68514
   ],
   [
    25.25835,
    54.68522
   ],
   [
    25.25849,
    54.68536
   ],
   [
    25.25862,
    54.68549
   ],
   [
    25.25875,
    54.68564
   ],
   [
    25.25888,
    54.68582
   ],
   [
    25.25897,
    54.6859
   ],
   [
    25.25902,
    54.68598
   ],
   [
    25.25908,
    54.68609
   ],
   [
    25.25909,
    54.68613
   ],
   [
    25.25912,
    54.68633
   ],
   [
    25.25922,
    54.68677
   ],
   [
    25.25932,
    54.6873
   ],
   [
    25.25944,
    54.688
   ],
   [
    25.25951,
    54.68836
   ],
   [
    25.25954,
    54.68852
   ],
   [
    25.2596,
    54.68881
   ],
   [
    25.25963,
    54.68902
   ],
   [
    25.25972,
    54.68945
   ],
   [
    25.2598,
    54.68985
   ],
   [
    25.25986,
    54.69012
   ],
   [
    25.2599,
    54.69032
   ],
   [
    25.25992,
    54.69042
   ],
   [
    25.25971,
    54.69044
   ],
   [
    25.25966,
    54.69044
   ],
   [
    25.25805,
    54.69049
   ],
   [
    25.25798,
    54.69049
   ],
   [
    25.25774,
    54.69048
   ],
   [
    25.25694,
    54.69042
   ],
   [
    25.25662,
    54.69041
   ],
   [
    25.25647,
    54.69041
   ],
   [
    25.25648,
    54.69031
   ],
   [
    25.25649,
    54.69012
   ],
   [
    25.25615,
    54.69012
   ],
   [
    25.25598,
    54.69011
   ],
   [
    25.25615,
    54.69012
   ],
   [
    25.25649,
    54.69012
   ],
   [
    25.25648,
    54.69031
   ],
   [
    25.25647,
    54.69041
   ],
   [
    25.25646,
    54.6905
   ],
   [
    25.25641,
    54.69078
   ],
   [
    25.25638,
    54.691
   ],
   [
    25.25636,
    54.69115
   ],
   [
    25.25633,
    54.6913
   ],
   [
    25.25631,
    54.69151
   ],
   [
    25.2563,
    54.69154
   ],
   [
    25.25624,
    54.69209
   ],
   [
    25.25623,
    54.69216
   ],
   [
    25.25622,
    54.69233
   ],
   [
    25.25621,
    54.69256
   ],
   [
    25.25618,
    54.6929
   ],
   [
    25.25616,
    54.69313
   ],
   [
    25.25615,
    54.6932
   ],
   [
    25.25612,
    54.6934
   ],
   [
    25.25608,
    54.69373
   ],
   [
    25.25608,
    54.69379
   ],
   [
    25.25607,
    54.6939
   ],
   [
    25.25605,
    54.69408
   ],
   [
    25.25601,
    54.69445
   ],
   [
    25.256,
    54.69454
   ],
   [
    25.25596,
    54.69491
   ],
   [
    25.25595,
    54.69505
   ],
   [
    25.25594,
    54.6953
   ],
   [
    25.25594,
    54.69536
   ],
   [
    25.25606,
    54.69539
   ],
   [
    25.2562,
    54.6954
   ],
   [
    25.25655,
    54.69544
   ],
   [
    25.25677,
    54.69547
   ],
   [
    25.2569,
    54.69548
   ],
   [
    25.25706,
    54.69549
   ],
   [
    25.25717,
    54.69549
   ],
   [
    25.25729,
    54.69549
   ],
   [
    25.25738,
    54.69548
   ],
   [
    25.25747,
    54.69548
   ],
   [
    25.25757,
    54.69546
   ],
   [
    25.25761,
    54.69545
   ],
   [
    25.25787,
    54.69538
   ],
   [
    25.25793,
    54.69537
   ],
   [
    25.25839,
    54.69525
   ],
   [
    25.25852,
    54.69522
   ],
   [
    25.25863,
    54.6952
   ],
   [
    25.25877,
    54.69518
   ],
   [
    25.25891,
    54.69517
   ],
   [
    25.25904,
    54.69516
   ],
   [
    25.25916,
    54.69516
   ],
   [
    25.2593,
    54.69516
   ],
   [
    25.25944,
    54.69517
   ],
   [
    25.25958,
    54.69519
   ],
   [
    25.25969,
    54.69521
   ],
   [
    25.2599,
    54.69525
   ],
   [
    25.26008,
    54.6953
   ],
   [
    25.26026,
    54.69536
   ],
   [
    25.26042,
    54.69544
   ],
   [
    25.26057,
    54.69551
   ],
   [
    25.26077,
    54.6956
   ],
   [
    25.26106,
    54.69573
   ],
   [
    25.26129,
    54.69583
   ],
   [
    25.26155,
    54.69593
   ],
   [
    25.26179,
    54.696
   ],
   [
    25.26211,
    54.69608
   ],
   [
    25.26238,
    54.69613
   ],
   [
    25.26261,
    54.69617
   ],
   [
    25.26287,
    54.69619
   ],
   [
    25.26315,
    54.69621
   ],
   [
    25.26336,
    54.69622
   ],
   [
    25.26442,
    54.69624
   ],
   [
    25.26639,
    54.69622
   ],
   [
    25.26654,
    54.69622
   ],
   [
    25.26673,
    54.69622
   ],
   [
    25.26686,
    54.69622
   ],
   [
    25.26742,
    54.69621
   ],
   [
    25.26762,
    54.6962
   ],
   [
    25.26784,
    54.6962
   ],
   [
    25.26832,
    54.69618
   ],
   [
    25.26868,
    54.69616
   ],
   [
    25.269,
    54.69614
   ],
   [
    25.26936,
    54.6961
   ],
   [
    25.26966,
    54.69606
   ],
   [
    25.27002,
    54.696
   ],
   [
    25.27041,
    54.69592
   ],
   [
    25.27069,
    54.69586
   ],
   [
    25.27097,
    54.69578
   ],
   [
    25.27123,
    54.6957
   ]
  ]
 }
}